,Unnamed: 0,STORE NAME,LICENSE ID,ACCOUNT NUMBER,SQUARE FEET,BUFFER SIZE,ADDRESS,ZIP CODE,COMMUNITY AREA NAME,COMMUNITY AREA,WARD,CENSUS TRACT,CENSUS BLOCK,X COORDINATE,Y COORDINATE,LATITUDE,LONGITUDE,LOCATION,LIQUOR STORE,STORE_NAME
0,0,200 LIQUORS,48663.0,17055.0,5000.0,B,204 E 47TH ST,60653,GRAND BOULEVARD,38,3,17031381500,170313815001007.0,1178461.6344048942,1873949.3843109088,41.8094238941,-87.62095180200001,"(41.8094238941, -87.6209518020)",0,200 liquors
1,1,3600 COMMISSARY,24279.0,9830.0,3800.0,B,3600 N LAKE SHORE DR,60613,LAKE VIEW,6,46,17031060900,170310609004001.0,1171865.8187503873,1924645.0382131825,41.9486836744,-87.6436497585,"(41.9486836744, -87.6436497585)",0,3600 commissary
2,2,4343 PETES FRESH MARKET,1336669.0,260303.0,57000.0,A,4343 S PULASKI RD,60632,ARCHER HEIGHTS,57,14,17031570100,170315701001015.0,1150447.9257608664,1875370.2855434741,41.8139143113,-87.72366494190003,"(41.8139143113, -87.7236649419)",0,4343 petes fresh market
3,3,4700 PETE'S FRESH MARKET,1243125.0,245519.0,45000.0,A,4700 S KEDZIE AVE,60632,BRIGHTON PARK,58,14,17031842800,170318428004023.0,1155791.9493024794,1873270.778482877,41.8080472717,-87.70411882229998,"(41.8080472717, -87.7041188223)",0,4700 petes fresh market
4,4,5659 W. DIVERSEY,1575023.0,277375.0,4000.0,B,5659 W DIVERSEY AVE,60639,BELMONT CRAGIN,19,30,17031190602,170311906022001.0,1137914.0810304238,1918001.653980749,41.9311354035,-87.76861213059998,"(41.9311354035, -87.7686121306)",0,5659 w. diversey
5,5,"7400 S HALSTED FOOD AND LIQUORS, INC.",980.0,186.0,10001.0,A,7400 S HALSTED ST,60621,ENGLEWOOD,68,17,17031681300,170316813003005.0,1172208.8098604858,1855768.9165432698,41.7596745819,-87.6444202389,"(41.7596745819, -87.6444202389)",0,"7400 s halsted food and liquors, inc."
6,6,79 FOOD BASKET,1958784.0,341069.0,3000.0,B,1351 W 79TH ST,60620,AUBURN GRESHAM,71,21,17031710700,170317107001012.0,1168478.9380996423,1852330.8146064384,41.7503211206,-87.65818905290001,"(41.7503211206, -87.6581890529)",0,79 food basket
7,7,A & B FOOD MARKET INC,43181.0,6483.0,10001.0,A,5057 W DIVISION ST,60651,AUSTIN,25,37,17031251100,170312511004000.0,1142184.0432471954,1907473.3799980525,41.9021664421,-87.75318234870001,"(41.9021664421, -87.7531823487)",0,a & b food market inc
8,8,A & G LIQUORS,44373.0,35423.0,4800.0,B,6945 S STATE ST,60637,GREATER GRAND CROSSING,69,6,17031690400,170316904003005.0,1177546.7151574378,1858784.7080415012,41.7678312792,-87.6247659397,"(41.7678312792, -87.6247659397)",0,a & g liquors
9,9,A & R FOOD MART,9125.0,4227.0,2500.0,B,5952 W GRAND AVE,60639,BELMONT CRAGIN,19,37,17031191302,170311913021018.0,1136148.464557395,1914149.526732603,41.9205964582,-87.7751926809,"(41.9205964582, -87.7751926809)",0,a & r food mart
10,10,A & R FOOD MART,1954411.0,340750.0,3500.0,B,5952 W GRAND AVE,60639,BELMONT CRAGIN,19,37,17031191302,170311913021018.0,1136148.464557395,1914149.526732603,41.9205964582,-87.7751926809,"(41.9205964582, -87.7751926809)",0,a & r food mart
11,11,AARAY GROCERY,1900.0,62541.0,10001.0,A,2601 N HALSTED ST,60614,LINCOLN PARK,7,43,17031070200,170310702001009.0,1170536.070565063,1917537.5957608281,41.929209817,-87.648746265,"(41.9292098170, -87.6487462650)",0,aaray grocery
12,12,ADA FOODS,50473.0,56673.0,4500.0,B,1281 W 71ST ST,60636,WEST ENGLEWOOD,67,17,17031671800,170316718001000.0,1168677.6792880679,1857642.999398216,41.764894181399995,-87.6573078048,"(41.7648941814, -87.6573078048)",0,ada foods
13,13,ADAMS FOOD MART,1817376.0,316090.0,2500.0,B,559 N LARAMIE AVE,60644,AUSTIN,25,28,17031251600,170312516003011.0,1141632.2601337098,1903412.6519004563,41.8910335471,-87.7553096457,"(41.8910335471, -87.7553096457)",0,adams food mart
14,14,AL BAYAN GROCERY INC.,1542202.0,282078.0,2500.0,B,3134 N NARRAGANSETT AVE,60634,BELMONT CRAGIN,19,36,17031831500,170318315001015.0,1133152.9704370177,1920313.7029264062,41.9375646502,-87.7860543686,"(41.9375646502, -87.7860543686)",0,al bayan grocery inc.
51,51,ALL STAR FOOD & LIQUOR,1922124.0,319069.0,4200.0,B,2911 S ARCHER AVE,60608,BRIDGEPORT,60,11,17031600700,170316007001000.0,1168263.5667718935,1885550.3656843528,41.841484039099996,-87.6580219776,"(41.8414840391, -87.6580219776)",0,all star food & liquor
52,52,ALLA'S FOOD,1068956.0,204849.0,3500.0,B,2024 E 93RD ST,60617,CALUMET HEIGHTS,48,8,17031480400,170314804004023.0,1191449.6829125532,1843746.804355471,41.726240348699996,-87.57429226110001,"(41.7262403487, -87.5742922611)",0,allas food
53,53,ALMUFLIHI FOOD & LIQUOR,62800.0,86373.0,4500.0,B,5404 S HALSTED ST,60609,NEW CITY,61,20,17031612100,170316121001039.0,1171851.2202830324,1868956.535462784,41.7958707987,-87.6453441182,"(41.7958707987, -87.6453441182)",0,almuflihi food & liquor
54,54,AM-PM FOOD MART & CELLULAR,1093813.0,207399.0,3500.0,B,1924 E 87TH ST,60617,AVALON PARK,45,8,17031450300,170314503003028.0,1190653.5047070954,1847714.1113309641,41.7371462539,-87.5770809934,"(41.7371462539, -87.5770809934)",0,am-pm food mart & cellular
55,55,ANAR INC,31219.0,14297.0,10001.0,A,935 E 79TH ST,60619,CHATHAM,44,8,17031440101,170314401011006.0,1183972.0905254784,1852784.3138003484,41.7512179339,-87.6014014102,"(41.7512179339, -87.6014014102)",0,anar inc
56,56,ANDYS FRUIT RANCH,1275209.0,3868.0,15000.0,A,4733 N KEDZIE AVE,60625,ALBANY PARK,14,33,17031140800,170311408005008.0,1154227.4639737108,1931413.945335908,41.967629159699996,-87.70830368729997,"(41.9676291597, -87.7083036873)",0,andys fruit ranch
57,57,ARISTA FOODS,1473367.0,271891.0,10000.0,A,112 N MAY ST,60607,NEAR WEST SIDE,28,27,17031833000,170318330002084.0,1168768.8265869268,1900830.15581926,41.8834021216,-87.65572529309998,"(41.8834021216, -87.6557252931)",0,arista foods
58,58,ARMITAGE PRODUCE INC,1771323.0,4469.0,14340.0,A,2007 N KIMBALL AVE,60647,LOGAN SQUARE,22,35,17031221100,170312211002029.0,1153421.1387810074,1913162.6717477248,41.9175624189,-87.7117551087,"(41.9175624189, -87.7117551087)",0,armitage produce inc
59,59,AROUND THE CLOCK,15860.0,6777.0,3000.0,B,1605 W HOWARD ST,60626,ROGERS PARK,1,49,17031010202,170310102021000.0,1164071.30189687,1950305.4360801172,42.0192651821,-87.6715720734,"(42.0192651821, -87.6715720734)",0,around the clock
60,60,ASHLAND FOOD AND LIQUORS,11636.0,5463.0,10001.0,A,1554 W 95TH ST,60643,WASHINGTON HEIGHTS,73,21,17031730201,170317302011018.0,1167375.750540768,1841756.3725905512,41.7213269867,-87.66253365850002,"(41.7213269867, -87.6625336585)",0,ashland food and liquors
61,61,ATHENS GROCERY,971.0,185.0,2600.0,B,324 S HALSTED ST,60661,NEAR WEST SIDE,28,27,17031833100,170318331001028.0,1171063.7903605013,1898574.3962069643,41.8771621281,-87.6473642897,"(41.8771621281, -87.6473642897)",0,athens grocery
62,62,AVENUE FOOD MAR INC,1246771.0,20727.0,18000.0,A,6850 W BELMONT AVE,60634,DUNNING,17,36,17031171000,170311710003022.0,1129966.4805599726,1920538.7303918144,41.938237376,-87.7977603483,"(41.9382373760, -87.7977603483)",0,avenue food mar inc
63,63,AWAMI BAZAAR & ZABIHA MEAT,68226.0,20954.0,2500.0,B,2340 W DEVON AVE,60659,WEST RIDGE,2,50,17031020500,170310205002005.0,1159376.8219060244,1942466.6780109804,41.9978536894,-87.6890642657,"(41.9978536894, -87.6890642657)",0,awami bazaar & zabiha meat
64,64,B & H FOOD & GROCERY,6068.0,3550.0,4500.0,B,713 S ALBANY AVE,60612,EAST GARFIELD PARK,27,28,17031837300,170318373001010.0,1155850.7566169042,1896704.1485966316,41.872350043000004,-87.7032726418,"(41.8723500430, -87.7032726418)",0,b & h food & grocery
65,65,Baltimore Food & Liquor,1446831.0,270755.0,3404.0,B,13322 S BALTIMORE AVE,60633,HEGEWISCH,55,10,17031550100,170315501004012.0,1199061.9749984262,1817112.1302290738,41.6529646117,-87.54729865280001,"(41.6529646117, -87.5472986528)",0,baltimore food & liquor
66,66,BARI,1245246.0,246600.0,2500.0,B,1120 W GRAND AVE,60622,WEST TOWN,24,27,17031243500,170312435001021.0,1168791.2989530065,1903675.7416113813,41.8912101212,-87.6555602414,"(41.8912101212, -87.6555602414)",0,bari
67,67,BERBATE FRUIT MARKET,1646036.0,296646.0,2500.0,B,3956 N NARRAGANSETT AVE,60634,DUNNING,17,38,17031170300,170311703001000.0,1132942.4846033207,1925839.4396579529,41.9527315616,-87.7866984426,"(41.9527315616, -87.7866984426)",0,berbate fruit market
68,68,BIG APPLE FINER FOODS INC,4900.0,3297.0,9000.0,B,2345 N CLARK ST,60614,LINCOLN PARK,7,43,17031071400,170310714003003.0,1172948.7056671935,1916010.4922481002,41.9249661791,-87.639926019,"(41.9249661791, -87.6399260190)",0,big apple finer foods inc
69,69,BOB'S LIQUORS & GROCERIES,957.0,86492.0,10001.0,A,5069 W MADISON ST,60644,AUSTIN,25,28,17031252201,170312522011000.0,1142425.3265431207,1899505.113898537,41.8802960895,-87.7524941982,"(41.8802960895, -87.7524941982)",0,bobs liquors & groceries
70,70,BOCKWINKELS,1491357.0,276156.0,7200.0,B,222 N COLUMBUS DR,60601,LOOP,32,42,17031320100,170313201002032.0,1178260.6232739312,1901977.4529888318,41.886339416,-87.62083615,"(41.8863394160, -87.6208361500)",0,bockwinkels
71,71,BOULEVARD FOOD & LIQUOR LLC,1931999.0,336958.0,3350.0,B,5922 W IRVING PARK RD,60634,PORTAGE PARK,15,38,17031150402,170311504022018.0,1136053.0143236292,1926023.8496508216,41.9531825896,-87.77525937530001,"(41.9531825896, -87.7752593753)",0,boulevard food & liquor llc
72,72,BROADWAY SUPERMARKET,50737.0,17352.0,15000.0,A,4879 N BROADWAY,60640,UPTOWN,3,48,17031031200,170310312002005.0,1167467.569308169,1932805.1043853988,41.9711711808,-87.659580975,"(41.9711711808, -87.6595809750)",0,broadway supermarket
73,73,BUDGET FINER FOODS,1337515.0,260726.0,3200.0,B,6604 N SHERIDAN RD,60626,ROGERS PARK,1,49,17031010502,170310105021006.0,1167008.167197132,1944300.998421497,42.0027261067,-87.66093836639999,"(42.0027261067, -87.6609383664)",0,budget finer foods
74,74,BURNHAM PLAZA MART,2014232.0,350131.0,2950.0,B,828 S WABASH AVE,60605,LOOP,32,2,17031320600,170313206002012.0,1176878.787434362,1896537.845880208,41.871444196300004,-87.62607513030001,"(41.8714441963, -87.6260751303)",0,burnham plaza mart
75,75,BUSY BEE SUPERMARKET,1974525.0,343785.0,2500.0,B,5659 S ASHLAND AVE,60636,WEST ENGLEWOOD,67,16,17031670200,170316702001016.0,1166685.2921777351,1866951.2767541348,41.7904800194,-87.66434506569998,"(41.7904800194, -87.6643450657)",0,busy bee supermarket
76,76,BUY -N- SAVE,62460.0,19735.0,8000.0,B,209 E 103RD ST,60628,ROSELAND,49,9,17031490902,170314909022003.0,1179510.2977121805,1836682.4142619641,41.7071353216,-87.61824172989998,"(41.7071353216, -87.6182417299)",0,buy -n- save
77,77,CAESAR'S FOODS INC,13670.0,6312.0,10001.0,A,901 N DAMEN AVE,60622,WEST TOWN,24,32,17031242200,170312422002006.0,1162946.626975658,1906024.244041993,41.8977792769,-87.6769588663,"(41.8977792769, -87.6769588663)",0,caesars foods inc
78,78,"CALABRIA IMPORTS, INC.",1357606.0,264103.0,3100.0,B,1905 W 103RD ST,60643,BEVERLY,72,19,17031720700,170317207001004.0,1165555.2824921713,1836329.4332021056,41.706473324499996,-87.6693549885,"(41.7064733245, -87.6693549885)",0,"calabria imports, inc."
79,79,"CALMA OPTIMAL DELI, INC.",1991322.0,346718.0,3000.0,B,5155 W ADDISON ST,60641,PORTAGE PARK,15,38,17031151001,170311510011000.0,1141134.0089200793,1923401.789580981,41.9458951009,-87.7566458523,"(41.9458951009, -87.7566458523)",0,"calma optimal deli, inc."
80,80,CARNICERIA DEL RIO,1801493.0,314238.0,3000.0,B,2714 W CERMAK RD,60608,SOUTH LAWNDALE,30,28,17031840700,170318407003012.0,1158513.930093316,1889320.58980214,41.8520347381,-87.6936969081,"(41.8520347381, -87.6936969081)",0,carniceria del rio
81,81,CARNICERIA EL PORVENIR,1768971.0,311076.0,2500.0,B,150 E KENSINGTON AVE,60628,WEST PULLMAN,53,9,17031530100,170315301001016.0,1179443.180500097,1828274.07861954,41.684063198000004,-87.6187429679,"(41.6840631980, -87.6187429679)",0,carniceria el porvenir
82,82,CARNICERIA GUANAJUATO,2069477.0,358374.0,9325.0,B,5250 W FULLERTON AVE,60639,BELMONT CRAGIN,19,31,17031190702,170311907023020.0,1140756.1800630721,1915489.208034782,41.9241891458,-87.75822974120001,"(41.9241891458, -87.7582297412)",0,carniceria guanajuato
83,83,CARNICERIA GUANAJUATO #3,2060960.0,357299.0,9000.0,B,3132 N CALIFORNIA AVE,60618,AVONDALE,21,33,17031210800,170312108001001.0,1157122.7839310614,1920845.308434896,41.938569715300005,-87.6979459455,"(41.9385697153, -87.6979459455)",0,carniceria guanajuato #3
84,84,CARNICERIA GUANJUATO #3,17340.0,63206.0,8800.0,B,1436 N ASHLAND AVE,60622,WEST TOWN,24,1,17031241500,170312415002000.0,1165420.7459043048,1909810.0076175025,41.908115373899996,-87.6677638335,"(41.9081153739, -87.6677638335)",0,carniceria guanjuato #3
85,85,CARNICERIA JIMENEZ #2,48081.0,16943.0,19000.0,A,3850 W FULLERTON AVE,60647,LOGAN SQUARE,22,30,17031220701,170312207013015.0,1150082.9154128209,1915713.6676657829,41.924628320500005,-87.72395332100002,"(41.9246283205, -87.7239533210)",0,carniceria jimenez #2
86,86,CARNICERIA JIMENEZ INC,1693.0,85292.0,16000.0,A,4204 W NORTH AVE,60639,HUMBOLDT PARK,23,30,17031230500,170312306004000.0,1148051.2248360445,1910341.2429574225,41.9099252471,-87.73155721629999,"(41.9099252471, -87.7315572163)",0,carniceria jimenez inc
87,87,CARNICERIA LA AZTECA,1354069.0,262231.0,2500.0,B,7067 N CLARK ST,60626,ROGERS PARK,1,49,17031010702,170310107021002.0,1163376.5213784971,1947274.501928361,42.0109629527,-87.6742146577,"(42.0109629527, -87.6742146577)",0,carniceria la azteca
88,88,CARNICERIA LA GLORIA,1471030.0,271545.0,6500.0,B,2551 W 51ST ST,60632,GAGE PARK,63,14,17031630500,170316305001004.0,1160008.901705246,1870722.7071781063,41.8009692763,-87.68872209870001,"(41.8009692763, -87.6887220987)",0,carniceria la gloria
89,89,"CARNICERIA LA GLORIA NO. 2, INC.",1514813.0,279304.0,7500.0,B,2744 W 55TH ST,60632,GAGE PARK,63,14,17031630500,170316305003017.0,1158820.849155428,1868105.554735369,41.7938118263,-87.6931506024,"(41.7938118263, -87.6931506024)",0,"carniceria la gloria no. 2, inc."
90,90,"CARNICERIA LA HACIENDA, INC.",1492826.0,276948.0,4000.0,B,3459 W 59TH ST,60629,CHICAGO LAWN,66,16,17031660400,170316604004000.0,1154081.8181969763,1865232.9119324528,41.786024401,-87.7106047774,"(41.7860244010, -87.7106047774)",0,"carniceria la hacienda, inc."
91,91,"CARNICERIA LA MEJOR PRODUCE, INC.",1800292.0,313836.0,4500.0,B,2915 N MILWAUKEE AVE,60618,AVONDALE,21,35,17031210602,170312106023005.0,1152283.91665166,1919259.219010504,41.9343143994,-87.7157719991,"(41.9343143994, -87.7157719991)",0,"carniceria la mejor produce, inc."
92,92,CARNICERIA LA VILLA #2,2060542.0,357089.0,3289.0,B,5800 W GRAND AVE,60639,BELMONT CRAGIN,19,37,17031191302,170311913021021.0,1137365.9008351532,1913858.0932083528,41.919774901,-87.7707265258,"(41.9197749010, -87.7707265258)",0,carniceria la villa #2
93,93,CARNICERIA RICARDO,35191.0,15006.0,5000.0,B,4419 W DIVERSEY AVE,60639,HERMOSA,20,31,17031200200,170312002004000.0,1146359.156186549,1918206.5211457592,41.9315407469,-87.7375725127,"(41.9315407469, -87.7375725127)",0,carniceria ricardo
94,94,CARNICERIA&FRUTERIA EL MITOTE,49322.0,17160.0,4500.0,B,4459 W BELMONT AVE,60641,HERMOSA,20,31,17031200100,170312001003000.0,1145834.3147029574,1920855.4036383203,41.9388195147,-87.73943380280001,"(41.9388195147, -87.7394338028)",0,carniceria&fruteria el mitote
95,95,CENTRAL PARK FOODS INC,13813.0,6373.0,8000.0,B,3604 W GRAND AVE,60651,HUMBOLDT PARK,23,26,17031231200,170312312001000.0,1152082.8628620578,1907654.3816119872,41.9024736738,-87.71681746530001,"(41.9024736738, -87.7168174653)",0,central park foods inc
96,96,CENTRO MARKET,66257.0,20469.0,9100.0,B,5153 S KEDZIE AVE,60632,GAGE PARK,63,14,17031630400,170316304004004.0,1155963.7604456872,1870068.7603182208,41.799257043699996,-87.7035747066,"(41.7992570437, -87.7035747066)",0,centro market
97,97,CERMAK PRODUCE,53313.0,17784.0,10000.0,A,4800 W DIVERSEY AVE,60639,BELMONT CRAGIN,19,31,17031190200,170311902004016.0,1143869.848167703,1918226.0439909613,41.9316414204,-87.74671991059998,"(41.9316414204, -87.7467199106)",0,cermak produce
98,98,CERMAK PRODUCE,1574003.0,286531.0,14000.0,A,4401 W ARMITAGE AVE,60639,HERMOSA,20,31,17031831200,170318312002004.0,1146718.753349206,1912886.2094597318,41.9169344398,-87.7363871475,"(41.9169344398, -87.7363871475)",0,cermak produce
99,99,CERMAK PRODUCE,1476657.0,273150.0,15000.0,A,1711 W CERMAK RD,60608,LOWER WEST SIDE,31,25,17031843200,170318432002043.0,1165248.8668543329,1889420.2405128144,41.8521678636,-87.66897504069998,"(41.8521678636, -87.6689750407)",0,cermak produce
100,100,CERMAK PRODUCE,1770942.0,311980.0,17000.0,A,3311 W 26TH ST,60623,SOUTH LAWNDALE,30,22,17031840800,170318408001003.0,1154665.2718672096,1886497.89361504,41.844366728699995,-87.7078980538,"(41.8443667287, -87.7078980538)",0,cermak produce
101,101,CERMAK PRODUCE,1515206.0,279468.0,25000.0,A,5220 S PULASKI RD,60632,WEST ELSDON,62,23,17031620200,170316202001000.0,1150549.397872218,1869568.6744565163,41.79799187,-87.7234437408,"(41.7979918700, -87.7234437408)",0,cermak produce
102,102,CERMAK PRODUCE,1476654.0,273149.0,29000.0,A,4234 N KEDZIE AVE,60618,IRVING PARK,16,33,17031160501,170311605011009.0,1154249.8718380923,1928122.479929122,41.9585967247,-87.7083095759,"(41.9585967247, -87.7083095759)",0,cermak produce
103,103,CERMAK PRODUCE #5 LTD,1649774.0,298958.0,10000.0,A,3435 S ARCHER AVE,60608,MCKINLEY PARK,59,11,17031840300,170318403002016.0,1163434.4911698306,1881819.8370208896,41.8313499001,-87.67584784790002,"(41.8313499001, -87.6758478479)",0,cermak produce #5 ltd
104,104,CERMAK PRODUCE NO.4,69608.0,21223.0,17000.0,A,2701 W NORTH AVE,60647,WEST TOWN,24,26,17031241000,170312410002000.0,1158110.2173899557,1910489.415016,41.9101322404,-87.69460039389999,"(41.9101322404, -87.6946003939)",0,cermak produce no.4
105,105,CHARLIES  SUPERMARKET INC.,1441898.0,268397.0,2500.0,B,2941 W MONTROSE AVE,60618,IRVING PARK,16,33,17031160601,170311606012000.0,1155799.62239241,1929051.344380061,41.9611144263,-87.7025869386,"(41.9611144263, -87.7025869386)",0,charlies  supermarket inc.
106,106,CHATHAM FOOD MARKET,1904290.0,331037.0,4500.0,B,327 E 79TH ST,60619,CHATHAM,44,6,17031440300,170314403002001.0,1179727.9186004677,1852659.2157454104,41.750972675300005,-87.6169578802,"(41.7509726753, -87.6169578802)",0,chatham food market
107,107,CHICAGO FOOD CORP,1169745.0,11429.0,10000.0,A,5800 N PULASKI RD,60646,NORTH PARK,13,39,17031130200,170311302001009.0,1148643.5223882992,1938042.3883606028,41.9859279924,-87.7286634185,"(41.9859279924, -87.7286634185)",0,chicago food corp
108,108,CHICAGO GROCERS,1332221.0,258200.0,2500.0,B,2122 W DEVON AVE,60659,WEST RIDGE,2,50,17031020500,170310205001013.0,1160870.3907480354,1942511.562416782,41.997945885300005,-87.683568705,"(41.9979458853, -87.6835687050)",0,chicago grocers
109,109,Chicago Health - Maple Street,2065274.0,357879.0,2900.0,B,22 W MAPLE ST,60610,NEAR NORTH SIDE,8,42,17031081100,170310811003002.0,1175919.2016318329,1907658.8738939352,41.9019825524,-87.6292631031,"(41.9019825524, -87.6292631031)",0,chicago health - maple street
110,110,CHICAGO PRODUCE,1865.0,368.0,13500.0,A,3500 W LAWRENCE AVE,60625,ALBANY PARK,14,39,17031140200,170311402003015.0,1152167.1785534604,1931711.0302956759,41.9684853733,-87.7158713295,"(41.9684853733, -87.7158713295)",0,chicago produce
111,111,CICERO DELI INC.,20884.0,8639.0,3600.0,B,3206 N CICERO AVE,60641,PORTAGE PARK,15,30,17031151002,170311510024009.0,1143769.2028091776,1920923.9679310487,41.93904667,-87.7470219655,"(41.9390466700, -87.7470219655)",0,cicero deli inc.
112,112,CITY GROCERY,1979483.0,344633.0,5000.0,B,405 N WABASH AVE,60611,NEAR NORTH SIDE,8,42,17031081500,170310815003007.0,1176706.4590198582,1903103.7595416445,41.8894653288,-87.6265092736,"(41.8894653288, -87.6265092736)",0,city grocery
113,113,CLARENDON FOOD MART INC,29515.0,11687.0,10000.0,A,4183 N CLARENDON AVE,60613,UPTOWN,3,46,17031031400,170310314003003.0,1170205.441116325,1928028.6054156309,41.9580048015,-87.6496537356,"(41.9580048015, -87.6496537356)",0,clarendon food mart inc
114,114,CLYBOURN MARKET,40522.0,15968.0,3500.0,B,2807 N CLYBOURN AVE,60618,NORTH CENTER,5,1,17031051400,170310514002008.0,1162477.1804368605,1918702.5181403288,41.9325791837,-87.678327456,"(41.9325791837, -87.6783274560)",0,clybourn market
115,115,COMMERCIAL GROCERY,56894.0,23932.0,2500.0,B,3004 E 100TH ST,60617,SOUTH DEERING,51,10,17031510100,170315101002007.0,1197923.0118507415,1839161.1525656912,41.7134978435,-87.55073310659998,"(41.7134978435, -87.5507331066)",0,commercial grocery
116,116,CORCORANS PANTRY INC,9412.0,4333.0,4200.0,B,1105 W BRYN MAWR AVE,60660,EDGEWATER,77,48,17031030701,170310307011003.0,1167789.171372333,1937316.9202511872,41.9835447852,-87.6582676725,"(41.9835447852, -87.6582676725)",0,corcorans pantry inc
117,117,COTTAGE GROVE FOOD MART,1898994.0,329883.0,4000.0,B,6307 S COTTAGE GROVE AVE,60637,WOODLAWN,42,20,17031420800,170314208001004.0,1182688.79232434,1863317.520917441,41.7801519592,-87.60577752409998,"(41.7801519592, -87.6057775241)",0,cottage grove food mart
118,118,COUNTY FAIR FOODS,37096.0,15344.0,10001.0,A,10800 S WESTERN AVE,60643,MORGAN PARK,75,19,17031750300,170317503001022.0,1162271.3113898507,1832938.9872909181,41.6972382088,-87.68147480420002,"(41.6972382088, -87.6814748042)",0,county fair foods
119,119,CRESPO'S FOOD MART,40132.0,15902.0,2800.0,B,4353 W MADISON ST,60624,WEST GARFIELD PARK,26,28,17031260600,170312606001001.0,1147155.4164315423,1899613.7335463515,41.880504995,-87.7351228503,"(41.8805049950, -87.7351228503)",0,crespos food mart
120,120,CUENCA'S BAKERY & GROCERIES,1619464.0,292181.0,4500.0,B,4229 W MONTROSE AVE,60641,IRVING PARK,16,38,17031160300,170311603003002.0,1147271.2214136072,1928863.7077261591,41.9607675196,-87.73394692709999,"(41.9607675196, -87.7339469271)",0,cuencas bakery & groceries
121,121,CUPBOARD FOOD & LIQUOR,7110.0,3758.0,3000.0,B,3260 W 55TH ST,60632,GAGE PARK,63,14,17031630300,170316303002035.0,1155332.3188848242,1867998.7006957629,41.793589179499996,-87.7059457835,"(41.7935891795, -87.7059457835)",0,cupboard food & liquor
122,122,D & A FOOD & LIQUOR,46444.0,7945.0,5500.0,B,1601 W GARFIELD BLVD,60636,WEST ENGLEWOOD,67,15,17031670300,170316703002005.0,1166596.81632756,1868070.926754333,41.793554363,-87.6646375512,"(41.7935543630, -87.6646375512)",0,d & a food & liquor
123,123,DANNY'S FRESH MARKET,1888080.0,326926.0,14405.0,A,2140 N WESTERN AVE,60647,LOGAN SQUARE,22,1,17031221500,170312215001018.0,1159966.2941524496,1914498.8393695613,41.921096268,-87.68767101290001,"(41.9210962680, -87.6876710129)",0,dannys fresh market
124,124,DEVON MARKET,1042888.0,201952.0,18500.0,A,1440 W DEVON AVE,60660,ROGERS PARK,1,40,17031010600,170310106003012.0,1165344.9554057205,1942648.85007482,41.9982282538,-87.66710446649998,"(41.9982282538, -87.6671044665)",0,devon market
125,125,DIA FOOD & LIQUOR,41854.0,16133.0,4500.0,B,1478 W 115TH ST,60643,MORGAN PARK,75,34,17031750600,170317506004046.0,1168245.9445753116,1828509.1381748824,41.684955798400004,-87.659725829,"(41.6849557984, -87.6597258290)",0,dia food & liquor
126,126,DILILAH GROCERY,1986580.0,346168.0,3125.0,B,1759 W 21ST ST,60608,LOWER WEST SIDE,31,25,17031310800,170313108003012.0,1164727.486820388,1890072.1725878369,41.8539678804,-87.6708701882,"(41.8539678804, -87.6708701882)",0,dililah grocery
127,127,DISCOUNT MEAT COMPANY,13820.0,6377.0,4160.0,B,339 W 79TH ST,60620,CHATHAM,44,17,17031842400,170318424002003.0,1175247.3682053008,1852518.3935411568,41.7506874405,-87.6333809292,"(41.7506874405, -87.6333809292)",0,discount meat company
128,128,DISCOUNT PANTRY CORPORATION,32952.0,14616.0,3600.0,B,4153 W 63RD ST,60629,WEST LAWN,65,13,17031650301,170316503013003.0,1149540.4794842748,1862455.905979646,41.7784929073,-87.727327519,"(41.7784929073, -87.7273275190)",0,discount pantry corporation
129,129,DOLLAR & LINEN,1875260.0,46290.0,5800.0,B,1853 W 87TH ST,60620,AUBURN GRESHAM,71,21,17031711300,170317113001005.0,1165310.5838773092,1846937.633330876,41.7355890742,-87.66995172629998,"(41.7355890742, -87.6699517263)",0,dollar & linen
130,130,DOLLAR DEALS & UP,1276566.0,252997.0,2500.0,B,2057 N PULASKI RD,60639,HERMOSA,20,30,17031200402,170312004021000.0,1149414.1088377142,1913618.23007828,41.9188912639,-87.726465315,"(41.9188912639, -87.7264653150)",0,dollar deals & up
131,131,DOMINICK'S,1969836.0,5033.0,59488.0,A,6623 N DAMEN AVE,60645,WEST RIDGE,2,50,17031020500,170310205003006.0,1161793.53830752,1944077.4209980012,42.0022233751,-87.680128828,"(42.0022233751, -87.6801288280)",0,dominicks
132,132,DOMINICK'S # 1100,41629.0,5033.0,10001.0,A,3145 S ASHLAND AVE,60608,MCKINLEY PARK,59,11,17031840400,170318404001032.0,1166221.8718805332,1883706.5913302056,41.8364683477,-87.6655669021,"(41.8364683477, -87.6655669021)",0,dominicks # 1100
133,133,DOMINICK'S # 113/1113,41633.0,5033.0,10001.0,A,6312 N NAGLE AVE,60646,NORWOOD PARK,10,41,17031100200,170311002002001.0,1132586.7487749453,1941599.641101808,41.9959852861,-87.78763711709999,"(41.9959852861, -87.7876371171)",0,dominicks # 113/1113
134,134,DOMINICK'S # 12/0012,41645.0,5033.0,10001.0,A,6009 N BROADWAY,60660,EDGEWATER,77,48,17031030101,170310301011003.0,1167254.1386252292,1940095.8362018457,41.9911817534,-87.6601550832,"(41.9911817534, -87.6601550832)",0,dominicks # 12/0012
135,135,DOMINICK'S # 130/1130,41657.0,5033.0,10001.0,A,2101 E 71ST ST,60649,SOUTH SHORE,43,5,17031430600,170314306001008.0,1191459.6594881737,1858232.4496476045,41.7659900011,-87.57378733670002,"(41.7659900011, -87.5737873367)",0,dominicks # 130/1130
136,136,DOMINICK'S # 304/2304,41617.0,5033.0,10001.0,A,2550 N CLYBOURN AVE,60614,LINCOLN PARK,7,32,17031070700,170310707002005.0,1163869.571255447,1916997.6875486718,41.9278717231,-87.67325881459999,"(41.9278717231, -87.6732588146)",0,dominicks # 304/2304
137,137,DOMINICK'S # 86/1086,41625.0,5033.0,10001.0,A,3350 N WESTERN AVE,60618,NORTH CENTER,5,47,17031843700,170318437001022.0,1159720.9795570998,1922387.0811091682,41.9427471952,-87.6883543215,"(41.9427471952, -87.6883543215)",0,dominicks # 86/1086
138,138,DOMINICK'S #147/1147,41674.0,5033.0,68000.0,A,1340 S CANAL ST,60607,NEAR WEST SIDE,28,2,17031841900,170318419002092.0,1173296.1226284578,1893985.704988339,41.8645211937,-87.6393040996,"(41.8645211937, -87.6393040996)",0,dominicks #147/1147
139,139,DOMINICK'S #153/2153,41678.0,5033.0,68000.0,A,424 W DIVISION ST,60610,NEAR NORTH SIDE,8,27,17031080400,170310804002003.0,1173143.8849041462,1908329.180767316,41.9038839611,-87.6394372016,"(41.9038839611, -87.6394372016)",0,dominicks #153/2153
140,140,DOMINICK'S #160/1698,41689.0,5033.0,72000.0,A,1763 W HOWARD ST,60626,ROGERS PARK,1,49,17031010202,170310102021001.0,1163123.8579016312,1950306.6460658687,42.0192885501,-87.6750585094,"(42.0192885501, -87.6750585094)",0,dominicks #160/1698
141,141,Dominick's #1703,1574461.0,5033.0,49320.0,A,255 E GRAND AVE,60611,NEAR NORTH SIDE,8,42,17031081403,170310814031010.0,1178351.1702400555,1903928.0332534544,41.8916898398,-87.6204441348,"(41.8916898398, -87.6204441348)",0,dominicks #1703
142,142,DOMINICK'S #1875,1273445.0,5033.0,39000.0,A,1 N HALSTED ST,60661,NEAR WEST SIDE,28,27,17031280100,170312801001038.0,1171090.9679868314,1900270.4540166915,41.8818156316,-87.64721471700001,"(41.8818156316, -87.6472147170)",0,dominicks #1875
143,143,DOMINICKS #2889,2042084.0,5033.0,48735.0,A,5233 N LINCOLN AVE,60625,LINCOLN SQUARE,4,40,17031040202,170310402022002.0,1158559.9659015764,1934822.6932261963,41.9768950984,-87.69227966780001,"(41.9768950984, -87.6922796678)",0,dominicks #2889
144,144,DOMINICKS #2890,2042094.0,5033.0,55129.0,A,5201 N SHERIDAN RD,60640,EDGEWATER,77,48,17031030706,170310307061008.0,1168741.5516419634,1934750.4471296656,41.976481667600005,-87.6548397772,"(41.9764816676, -87.6548397772)",0,dominicks #2890
145,145,DOMINICK'S FINER FOODS - STORE # 2775,1820382.0,5033.0,54963.0,A,2021 W CHICAGO AVE,60622,WEST TOWN,24,1,17031243000,170312430001000.0,1162687.5443539885,1905295.5903337188,41.8957852296,-87.6779308926,"(41.8957852296, -87.6779308926)",0,dominicks finer foods - store # 2775
146,146,"DOMINICK'S Finer Foods, Inc. #1695",41682.0,5033.0,26819.0,A,959 W FULLERTON AVE,60614,LINCOLN PARK,7,43,17031071100,170310711002000.0,1169257.2758050784,1916091.024655496,41.9252682757,-87.6534875641,"(41.9252682757, -87.6534875641)",0,"dominicks finer foods, inc. #1695"
147,147,E.M. GROCERIES,4863.0,3289.0,4500.0,B,5358 S CARPENTER ST,60609,NEW CITY,61,16,17031612000,170316120002009.0,1170189.6270939496,1869037.3793131497,41.7961289732,-87.6514349028,"(41.7961289732, -87.6514349028)",0,e.m. groceries
148,148,EDDIE & SON FOOD &LIQ.,4146.0,3169.0,2500.0,B,3624 W NORTH AVE,60647,HUMBOLDT PARK,23,26,17031230400,170312307001000.0,1151856.6139789422,1910429.263639004,41.9100926711,-87.71757535319998,"(41.9100926711, -87.7175753532)",0,eddie & son food &liq.
149,149,EDDIE'S FOOD MART,50432.0,17311.0,4500.0,B,1858 W 63RD ST,60636,WEST ENGLEWOOD,67,15,17031670600,170316706002016.0,1164782.2873847398,1862921.1125592643,41.7794611564,-87.67143667149998,"(41.7794611564, -87.6714366715)",0,eddies food mart
150,150,"EDDIE'S SUNSHINE FOOD & LIQUOR,  INC.",24217.0,63476.0,3000.0,B,10806 S MICHIGAN AVE,60628,ROSELAND,49,9,17031490901,170314909012011.0,1178782.207447601,1833280.9974206788,41.6978179235,-87.6210110036,"(41.6978179235, -87.6210110036)",0,"eddies sunshine food & liquor,  inc."
151,151,EDDY'S FOOD MART,1879269.0,324962.0,4000.0,B,7575 N ROGERS AVE,60626,ROGERS PARK,1,49,17031010300,170310103002005.0,1164934.2794793441,1950275.478316736,42.019164625,-87.668397288,"(42.0191646250, -87.6683972880)",0,eddys food mart
152,152,EDGEWATER PRODUCE,16765.0,6928.0,7400.0,B,5509 N CLARK ST,60640,EDGEWATER,77,48,17031030800,170310308001010.0,1165060.267758244,1936722.1790277204,41.981971377,-87.6683210323,"(41.9819713770, -87.6683210323)",0,edgewater produce
153,153,EL  PASEO  BORICUA,1301216.0,254645.0,3000.0,B,2706 W DIVISION ST,60622,WEST TOWN,24,26,17031242600,170312426001013.0,1158083.1371978272,1907909.8300203527,41.9030542001,-87.6947704208,"(41.9030542001, -87.6947704208)",0,el  paseo  boricua
154,154,EL BARRIO GROCERY,42681.0,16221.0,10001.0,A,3938 W NORTH AVE,60647,HUMBOLDT PARK,23,30,17031230400,170312307004007.0,1149716.519704143,1910383.1571315075,41.9100080401,-87.7254384633,"(41.9100080401, -87.7254384633)",0,el barrio grocery
155,155,EL MILAGRO,43513.0,2718.0,5500.0,B,3048 W 26TH ST,60623,SOUTH LAWNDALE,30,12,17031300900,170313009001012.0,1156243.443139308,1886626.2709935056,41.844687327399996,-87.702102936,"(41.8446873274, -87.7021029360)",0,el milagro
156,156,EL YUNQUE FOOD & LIQUOR,1986802.0,346323.0,2500.0,B,1900 N CALIFORNIA AVE,60647,LOGAN SQUARE,22,35,17031222500,170312225001000.0,1157361.323079915,1912535.0955815718,41.9157610232,-87.6972958109,"(41.9157610232, -87.6972958109)",0,el yunque food & liquor
157,157,EMILIO'S PRODUCE,1675623.0,298914.0,2500.0,B,2294 N MILWAUKEE AVE,60647,LOGAN SQUARE,22,1,17031221400,170312214002002.0,1157396.7805960944,1915026.7030165384,41.9225974657,-87.6970976291,"(41.9225974657, -87.6970976291)",0,emilios produce
158,158,EUROPA GALLERIA INC,1299537.0,253902.0,6500.0,B,340 W SUPERIOR ST,60610,NEAR NORTH SIDE,8,42,17031081800,170310818002018.0,1173771.5733286294,1905338.2646616227,41.8956627719,-87.637220715,"(41.8956627719, -87.6372207150)",0,europa galleria inc
159,159,EXTRA VALUE FOOD & LIQUOR,1823321.0,319024.0,5000.0,B,6257 S ASHLAND AVE,60636,WEST ENGLEWOOD,67,16,17031670800,170316708002029.0,1166789.0790554823,1862992.586220064,41.7796146658,-87.6640774893,"(41.7796146658, -87.6640774893)",0,extra value food & liquor
160,160,"MY RANCH, INC.",1899688.0,20694.0,8500.0,B,4650 N SHERIDAN RD,60640,UPTOWN,3,46,17031830700,170310315011002.0,1168740.4622678708,1931286.882205532,41.9669775683,-87.6549446417,"(41.9669775683, -87.6549446417)",0,"my ranch, inc."
161,161,FAIRPLAY FINER FOOD,10940.0,86481.0,10001.0,A,2200 S WESTERN AVE,60608,LOWER WEST SIDE,31,25,17031841300,170318413002001.0,1160669.425627566,1889318.196821948,41.8519838396,-87.6857857042,"(41.8519838396, -87.6857857042)",0,fairplay finer food
162,162,FAIRPLAY FINER FOODS INC,10949.0,86481.0,10001.0,A,4640 S HALSTED ST,60609,NEW CITY,61,11,17031842600,170318426002035.0,1171712.004883154,1873969.4316081447,41.809629768,-87.6457075651,"(41.8096297680, -87.6457075651)",0,fairplay finer foods inc
163,163,FAIRPLAY FOODS INC,10947.0,86481.0,18500.0,A,2323 W 111TH ST,60643,MORGAN PARK,75,19,17031750500,170317505001002.0,1162749.7570969034,1830916.8666691573,41.691679204,-87.6797791725,"(41.6916792040, -87.6797791725)",0,fairplay foods inc
164,164,FAIRWAY FOOD,2031993.0,352796.0,3000.0,B,2900 E 79TH ST,60649,SOUTH SHORE,43,7,17031431301,170314313011010.0,1196899.785259481,1853184.8169503284,41.7520053919,-87.5540154169,"(41.7520053919, -87.5540154169)",0,fairway food
165,165,FAMILY PRIDE,77270.0,22785.0,12500.0,A,10601 S PULASKI RD,60655,MOUNT GREENWOOD,74,19,17031740200,170317402002010.0,1151594.3062861143,1833996.479833911,41.7003552742,-87.7205408964,"(41.7003552742, -87.7205408964)",0,family pride
166,166,FARM SUPER MARKET,2017764.0,339512.0,3000.0,B,2255 W DEVON AVE,60659,WEST RIDGE,2,50,17031020901,170310209011002.0,1159880.4293296346,1942402.4226755444,41.9976669579,-87.68721345600002,"(41.9976669579, -87.6872134560)",0,farm super market
167,167,FIESTA SUPERMARCADO,1196305.0,221943.0,14500.0,A,3307 W 63RD ST,60629,CHICAGO LAWN,66,15,17031660500,170316605001002.0,1155383.105070945,1862616.485060701,41.7788185771,-87.70590357549999,"(41.7788185771, -87.7059035755)",0,fiesta supermarcado
168,168,FIRST CHOICE MARKET,1969290.0,342952.0,10000.0,A,3019 E 91ST ST,60617,SOUTH CHICAGO,46,10,17031461000,170314610001014.0,1197964.0966857816,1845167.1808781882,41.7299778712,-87.5503825944,"(41.7299778712, -87.5503825944)",0,first choice market
169,169,FIVE STAR CERTIFIED INC,7168.0,3771.0,5000.0,B,935 W 87TH ST,60620,AUBURN GRESHAM,71,21,17031711400,170317114002006.0,1171458.6183638687,1847102.1948860583,41.7359084057,-87.64742288030001,"(41.7359084057, -87.6474228803)",0,five star certified inc
170,170,FOOD 4 LESS,1884255.0,251246.0,58000.0,A,4821 W NORTH AVE,60639,AUSTIN,25,37,17031250800,170312508001000.0,1143859.6919038594,1910159.1206884226,41.9095051477,-87.74695993629999,"(41.9095051477, -87.7469599363)",0,food 4 less
171,171,FOOD 4 LESS,1928152.0,251246.0,63506.0,A,112 W 87TH ST,60620,CHATHAM,44,21,17031842400,170318424002040.0,1176892.3652144854,1847318.0013730056,41.7363800456,-87.62750921899998,"(41.7363800456, -87.6275092190)",0,food 4 less
172,172,Food 4 Less Midwest,1596210.0,251246.0,62000.0,A,7030 S ASHLAND AVE,60636,WEST ENGLEWOOD,67,17,17031671500,170316715003031.0,1166858.4518661886,1857955.501469681,41.7657907704,-87.66396688649998,"(41.7657907704, -87.6639668865)",0,food 4 less midwest
173,173,FOOD 4 LESS,1272529.0,251246.0,64486.0,A,4620 S DAMEN AVE,60609,NEW CITY,61,12,17031610300,170316103003015.0,1163694.5483752063,1873920.77923312,41.809668528,-87.6751156964,"(41.8096685280, -87.6751156964)",0,food 4 less
174,174,FOOD BASKET,1682475.0,291625.0,2500.0,B,7205 S HALSTED ST,60621,ENGLEWOOD,68,17,17031681300,170316813001006.0,1172254.5642532066,1857047.14558258,41.763181195,-87.64421502100002,"(41.7631811950, -87.6442150210)",0,food basket
175,175,FOODSMART,46295.0,16644.0,3500.0,B,3415 W DIVERSEY AVE,60647,LOGAN SQUARE,22,35,17031220602,170312206025000.0,1153071.521264848,1918367.8382003282,41.9318527752,-87.7129012497,"(41.9318527752, -87.7129012497)",0,foodsmart
176,176,FOODSMART,1474028.0,272175.0,13800.0,A,2901 W ARMITAGE AVE,60647,LOGAN SQUARE,22,35,17031222500,170312225001004.0,1156800.356169665,1913113.1123978498,41.9173585451,-87.69934106870001,"(41.9173585451, -87.6993410687)",0,foodsmart
177,177,FRESH BUY FOODS INC,23640.0,9535.0,26000.0,A,6319 S VERNON AVE,60637,WOODLAWN,42,20,17031420700,170314207005004.0,1180379.1641090557,1863120.50899498,41.7796646515,-87.6142509361,"(41.7796646515, -87.6142509361)",0,fresh buy foods inc
178,178,FRESH FARMS INTERNATIONAL,30144.0,12018.0,9500.0,B,2626 W DEVON AVE,60659,WEST RIDGE,2,50,17031020602,170310206023013.0,1157511.1764635018,1942409.7931918474,41.9977359091,-87.69592888049999,"(41.9977359091, -87.6959288805)",0,fresh farms international
179,179,FRESH MARKET PLACE,1382145.0,266140.0,20000.0,A,2600 N CENTRAL AVE,60639,BELMONT CRAGIN,19,30,17031190602,170311906022018.0,1138560.7434555728,1916734.935612859,41.9276476796,-87.76626652110001,"(41.9276476796, -87.7662665211)",0,fresh market place
180,180,FRUTERIA EL MERCADO,21239.0,8832.0,5500.0,B,2759 S SPAULDING AVE,60623,SOUTH LAWNDALE,30,22,17031840800,170318408001015.0,1154858.0081655954,1885248.0532689441,41.8409331636,-87.7072241769,"(41.8409331636, -87.7072241769)",0,fruteria el mercado
181,181,FURTERIA EL SERRANITO,2031979.0,352794.0,2500.0,B,1755 W 38TH ST,60609,MCKINLEY PARK,59,11,17031590700,170315907001015.0,1165040.1969612509,1879467.3770517912,41.8248606245,-87.6700230192,"(41.8248606245, -87.6700230192)",0,furteria el serranito
182,182,GAYTAN GROCERY STORE,85044.0,81586.0,3500.0,B,2802 S KOLIN AVE,60623,SOUTH LAWNDALE,30,22,17031301801,170313018011003.0,1147806.7621309962,1884970.125243476,41.8403086304,-87.73310705899998,"(41.8403086304, -87.7331070590)",0,gaytan grocery store
183,183,GEMELOS FOOD/ CHECK CASHING SERVICES,1045757.0,203580.0,6600.0,B,4300 S MOZART ST,60632,BRIGHTON PARK,58,14,17031580502,170315805023027.0,1158040.5491916377,1875978.450834644,41.815432001,-87.69579779,"(41.8154320010, -87.6957977900)",0,gemelos food/ check cashing services
184,184,GENE'S SAUSAGE SHOP & DELI INC,1876.0,371.0,5000.0,B,5330 W BELMONT AVE,60641,PORTAGE PARK,15,38,17031151100,170311511002015.0,1140128.163542057,1920795.5982101425,41.9387619658,-87.7604070714,"(41.9387619658, -87.7604070714)",0,genes sausage shop & deli inc
185,185,GENES SAUSAGE SHOP AT DELI MEYER,1922145.0,335302.0,6000.0,B,4746 N LINCOLN AVE,60625,LINCOLN SQUARE,4,47,17031040600,170310406003004.0,1159702.0574422998,1931499.8965466442,41.9677536575,-87.6881717161,"(41.9677536575, -87.6881717161)",0,genes sausage shop at deli meyer
186,186,GILMART'S  FOOD & LIQUOR,22715.0,9350.0,10001.0,A,5044 S ARCHER AVE,60632,ARCHER HEIGHTS,57,14,17031570300,170315703002016.0,1149831.6750960744,1870805.5673226253,41.8014000331,-87.7260437419,"(41.8014000331, -87.7260437419)",0,gilmarts  food & liquor
187,187,GOLDMORE FOOD,34046.0,14804.0,2500.0,B,1949 W 51ST ST,60609,NEW CITY,61,16,17031611700,170316117003002.0,1164000.6811145658,1870810.754657064,41.801127809099995,-87.6740803441,"(41.8011278091, -87.6740803441)",0,goldmore food
188,188,GRAND FOOD MARKET,1221783.0,223107.0,3952.0,B,5202 W GRAND AVE,60639,BELMONT CRAGIN,19,37,17031191200,170311912002006.0,1141369.1955228336,1912898.1662680104,41.9170677465,-87.7560413324,"(41.9170677465, -87.7560413324)",0,grand food market
189,189,"GRAND PALACE SUPERMARKET, INC",49648.0,17200.0,3000.0,B,7131 S STATE ST,60619,GREATER GRAND CROSSING,69,6,17031691000,170316910004006.0,1177563.5802857794,1857597.7057300936,41.7645736329,-87.6247399651,"(41.7645736329, -87.6247399651)",0,"grand palace supermarket, inc"
190,190,"H & A FOOD MARKET, INC.",1379268.0,217567.0,2500.0,B,1007 W 63RD ST,60621,ENGLEWOOD,68,16,17031681000,170316810004004.0,1170635.7339171742,1863004.589298344,41.7795645849,-87.6499748357,"(41.7795645849, -87.6499748357)",0,"h & a food market, inc."
191,191,H & Z GROCERY STORE,3166.0,2823.0,10001.0,A,3638 W WRIGHTWOOD AVE,60647,LOGAN SQUARE,22,35,17031220702,170312207024010.0,1151510.737706785,1917078.382708844,41.928345251399996,-87.71867089950001,"(41.9283452514, -87.7186708995)",0,h & z grocery store
192,192,HALAL MEAT & GROCERY,55665.0,18191.0,2500.0,B,1414 W DEVON AVE,60660,ROGERS PARK,1,40,17031010600,170310106003008.0,1165598.6391106143,1942654.1537479472,41.9982373871,-87.6661711005,"(41.9982373871, -87.6661711005)",0,halal meat & grocery
193,193,HAPPY FOODS,1618660.0,294177.0,11000.0,A,6783 N NORTHWEST HWY,60631,EDISON PARK,9,41,17031090200,170310902004007.0,1124182.6943602774,1944613.811204796,42.0043992612,-87.8184857554,"(42.0043992612, -87.8184857554)",0,happy foods
194,194,HAPPY FOODS,1618656.0,294177.0,11500.0,A,6415 N CENTRAL AVE,60646,FOREST GLEN,12,45,17031120200,170311202002015.0,1139158.1573933284,1942325.6373831013,41.997860013899995,-87.7634457986,"(41.9978600139, -87.7634457986)",0,happy foods
195,195,HARBOR MARKET,44759.0,16473.0,4200.0,B,155 N HARBOR DR,60601,LOOP,32,42,17031320100,170313201004020.0,1179690.182993199,1901410.3393839328,41.8847505385,-87.6156039565,"(41.8847505385, -87.6156039565)",0,harbor market
196,196,HAREER FOOD & LIQUOR,52337.0,17625.0,2500.0,B,5452 S HALSTED ST,60609,NEW CITY,61,20,17031612100,170316121001043.0,1171863.414509335,1868478.62879514,41.7945591033,-87.6453134277,"(41.7945591033, -87.6453134277)",0,hareer food & liquor
197,197,HARPER FOODS,57683.0,18537.0,3300.0,B,1455 E 57TH ST,60637,HYDE PARK,41,5,17031411100,170314111002000.0,1187084.0793031498,1867457.9945814053,41.7914105694,-87.58953262780001,"(41.7914105694, -87.5895326278)",0,harper foods
198,198,HARVESTIME FOODS,43697.0,16317.0,8750.0,B,2632 W LAWRENCE AVE,60625,LINCOLN SQUARE,4,40,17031040201,170310402013015.0,1157798.3462350464,1931819.6590417097,41.9686702259,-87.6951627475,"(41.9686702259, -87.6951627475)",0,harvestime foods
199,199,Hegewisch Fruit Market Inc.,2020869.0,350864.0,7800.0,B,13209 S BALTIMORE AVE,60633,HEGEWISCH,55,10,17031550100,170315501006033.0,1199136.359645807,1817923.2624218927,41.6551885903,-87.54699941850002,"(41.6551885903, -87.5469994185)",0,hegewisch fruit market inc.
200,200,HILLTOP LIQUORS MART,788.0,148.0,3200.0,B,10259 S MICHIGAN AVE,60628,ROSELAND,49,9,17031490800,170314908005007.0,1179014.4573692612,1836719.3542895487,41.7072479748,-87.62005636399998,"(41.7072479748, -87.6200563640)",0,hilltop liquors mart
201,201,HOA NOM CO,8425.0,62866.0,4200.0,B,1101 W ARGYLE ST,60640,UPTOWN,3,48,17031031200,170310312002002.0,1167937.142055611,1933534.056018171,41.9731612999,-87.65783317959999,"(41.9731612999, -87.6578331796)",0,hoa nom co
202,202,HOLLYWOOD TOWER MKT,1858.0,62539.0,3000.0,B,5701 N SHERIDAN RD,60660,EDGEWATER,77,48,17031030604,170310306042001.0,1168645.9152298884,1938086.668967148,41.985638421,-87.6550943233,"(41.9856384210, -87.6550943233)",0,hollywood tower mkt
203,203,HONG KONG MARKET,1892499.0,64229.0,46300.0,A,520 W 24TH PL,60616,ARMOUR SQUARE,34,25,17031841100,170318411003017.0,1172894.1385008285,1888048.2113696104,41.8482371659,-87.6409555275,"(41.8482371659, -87.6409555275)",0,hong kong market
205,205,IMPERIAL TOWER MARKET,22624.0,9323.0,6031.0,B,4250 N MARINE DR,60613,UPTOWN,3,46,17031031400,170310314001001.0,1170946.9174634116,1928768.9097340298,41.960019954,-87.6469060276,"(41.9600199540, -87.6469060276)",0,imperial tower market
206,206,INTERNATIONAL FOODS NW INC,1129.0,215.0,14000.0,A,4404 W FULLERTON AVE,60639,HERMOSA,20,31,17031200200,170312002003012.0,1146590.1362659943,1915632.3730053552,41.9244726356,-87.736789505,"(41.9244726356, -87.7367895050)",0,international foods nw inc
207,207,INTERNATIONAL SUPERMARKET INC,16712.0,6917.0,7500.0,B,4556 S ASHLAND AVE,60609,NEW CITY,61,3,17031610400,170316104001000.0,1166403.2942998728,1874268.6180732348,41.8105656774,-87.6651705169,"(41.8105656774, -87.6651705169)",0,international supermarket inc
208,208,J & A ORIENTAL FOOD MART,30859.0,8995.0,10001.0,A,5755 W FULLERTON AVE,60639,BELMONT CRAGIN,19,37,17031191302,170311913022003.0,1137381.6671338268,1915324.773720406,41.9237993545,-87.77063323639999,"(41.9237993545, -87.7706332364)",0,j & a oriental food mart
209,209,J & J EUROPEAN DELI,21936.0,63361.0,3000.0,B,5960 W LAWRENCE AVE,60630,PORTAGE PARK,15,45,17031150401,170311504013000.0,1135539.5474557276,1931334.5392015583,41.9677648001,-87.7770202043,"(41.9677648001, -87.7770202043)",0,j & j european deli
210,210,J AND P FINER FOODS,1567.0,299.0,4500.0,B,3501 W MONTROSE AVE,60618,IRVING PARK,16,33,17031160501,170311605012002.0,1152248.0645839958,1928979.61591476,41.9609885935,-87.7156463163,"(41.9609885935, -87.7156463163)",0,j and p finer foods
211,211,J K & S FOOD & LIQUOR,1000978.0,32337.0,3024.0,B,503 W 59TH ST,60621,ENGLEWOOD,68,20,17031834600,170318346002004.0,1173930.9306113909,1865754.8378243763,41.7870390747,-87.6378127282,"(41.7870390747, -87.6378127282)",0,j k & s food & liquor
212,212,J R GROCERY STORE,5644.0,3466.0,10001.0,A,505 E 134TH ST,60827,RIVERDALE,54,9,17031540101,170315401011006.0,1182103.2655995085,1816525.0131739432,41.6517610645,-87.6093666123,"(41.6517610645, -87.6093666123)",0,j r grocery store
213,213,JAMAICA FOOD & LIQUOR INC,22679.0,9341.0,2500.0,B,4252 S COTTAGE GROVE AVE,60653,GRAND BOULEVARD,38,4,17031380100,170313801001032.0,1182280.5445406442,1876753.0926350118,41.8170297652,-87.6068579199,"(41.8170297652, -87.6068579199)",0,jamaica food & liquor inc
214,214,JARDAN FOOD & LIQUOR,11226.0,5270.0,9500.0,B,317 E GARFIELD BLVD,60637,WASHINGTON PARK,40,3,17031400400,170314004001003.0,1179170.1946088122,1868452.9110248592,41.7943249341,-87.6185206053,"(41.7943249341, -87.6185206053)",0,jardan food & liquor
215,215,JERUSALEM LIQUORS,440.0,80.0,4500.0,B,3133 W LAWRENCE AVE,60625,ALBANY PARK,14,33,17031140800,170311408005007.0,1154472.8354969018,1931680.1407224515,41.9683547002,-87.7073943249,"(41.9683547002, -87.7073943249)",0,jerusalem liquors
249,249,JOE'S FOOD & LIQUOR,822.0,154.0,3500.0,B,3626 W LAWRENCE AVE,60625,ALBANY PARK,14,39,17031140301,170311403011011.0,1151203.1588810692,1931689.479330876,41.968445246,-87.7194165758,"(41.9684452460, -87.7194165758)",0,joes food & liquor
250,250,JOE'S FOOD AND LIQUOR DEPOT,1575140.0,286898.0,4000.0,B,5834 W FULLERTON AVE,60639,BELMONT CRAGIN,19,30,17031190602,170311906023021.0,1136930.5826542045,1915391.9580350104,41.9239918266,-87.7722891067,"(41.9239918266, -87.7722891067)",0,joes food and liquor depot
251,251,JOLANTA'S INTERNATIONAL DELI,26376.0,10856.0,10001.0,A,5914 W HIGGINS AVE,60630,JEFFERSON PARK,11,45,17031110400,170311104003013.0,1135703.9578490956,1933167.4320264272,41.9727914969,-87.7763718583,"(41.9727914969, -87.7763718583)",0,jolantas international deli
252,252,JOSEPH FOOD MART,6157.0,62754.0,3000.0,B,8235 W IRVING PARK RD,60634,DUNNING,17,36,17031170500,170311705003004.0,1120303.8969689277,1925502.4247494664,41.9520185577,-87.83316684340002,"(41.9520185577, -87.8331668434)",0,joseph food mart
253,253,K & K FOOD & LIQUOR,62092.0,23937.0,4200.0,B,1130 W 51ST ST,60609,NEW CITY,61,16,17031611000,170316110001031.0,1169532.159988125,1871017.4682229413,41.8015768439,-87.6537884728,"(41.8015768439, -87.6537884728)",0,k & k food & liquor
254,254,K BUENA,1999075.0,65396.0,3500.0,B,4322 W MARQUETTE RD,60629,WEST LAWN,65,13,17031650301,170316503012017.0,1148569.6566135706,1859858.282165421,41.7713833198,-87.73095336889999,"(41.7713833198, -87.7309533689)",0,k buena
255,255,KAMDAR PLAZA INC,4429.0,3241.0,5500.0,B,2646 W DEVON AVE,60659,WEST RIDGE,2,50,17031020602,170310206023014.0,1157317.6151593665,1942403.248394477,41.9977219015,-87.6966411029,"(41.9977219015, -87.6966411029)",0,kamdar plaza inc
256,256,"Kan-Zaman Mart, Inc.",1119908.0,209575.0,4600.0,B,2005 S MICHIGAN AVE,60616,NEAR SOUTH SIDE,33,2,17031330100,170313301004046.0,1177567.0324267587,1890666.6479502176,41.855317671,-87.6237265152,"(41.8553176710, -87.6237265152)",0,"kan-zaman mart, inc."
257,257,KAPS FOODS,57817.0,18562.0,4100.0,B,3557 S CALIFORNIA AVE,60632,BRIGHTON PARK,58,12,17031580100,170315801001006.0,1158326.4831652388,1880700.3493313147,41.8283836447,-87.69462017,"(41.8283836447, -87.6946201700)",0,kaps foods
258,258,KEY FOOD LIQUOR,17551.0,7109.0,3800.0,B,13355 S INDIANA AVE,60827,RIVERDALE,54,9,17031540101,170315401012014.0,1179993.5943226696,1816584.55576124,41.6519728186,-87.61708373629999,"(41.6519728186, -87.6170837363)",0,key food liquor
259,259,KHALIL FOOD & LIQUOR,46846.0,16717.0,3000.0,B,146 W 103RD ST,60628,ROSELAND,49,9,17031490700,170314907002019.0,1176913.316073054,1836691.171717948,41.707218139,-87.6277515583,"(41.7072181390, -87.6277515583)",0,khalil food & liquor
260,260,KING FOOD & LIQUOR,40321.0,2926.0,3750.0,B,6858 S HALSTED ST,60621,ENGLEWOOD,68,6,17031681100,170316811001011.0,1172117.4954189106,1859139.6508902046,41.7689262968,-87.644655997,"(41.7689262968, -87.6446559970)",0,king food & liquor
261,261,KOL TUV KOSHER FOODS INC,12952.0,6158.0,3000.0,B,2938 W DEVON AVE,60659,WEST RIDGE,2,50,17031020601,170310206012018.0,1155422.8971575014,1942345.2798729453,41.9976012808,-87.7036126719,"(41.9976012808, -87.7036126719)",0,kol tuv kosher foods inc
262,262,KORDIAN'S MARKET,28114.0,11448.0,4610.0,B,6332 W HIGGINS AVE,60630,JEFFERSON PARK,11,45,17031110300,170311103002023.0,1132925.716275297,1934312.9608035104,41.9759840467,-87.7865613104,"(41.9759840467, -87.7865613104)",0,kordians market
263,263,"KRAKUS DELI,  INC",1222467.0,229704.0,3500.0,B,5155 W ADDISON ST,60641,PORTAGE PARK,15,38,17031151001,170311510011000.0,1141134.0089200793,1923401.789580981,41.9458951009,-87.7566458523,"(41.9458951009, -87.7566458523)",0,"krakus deli,  inc"
264,264,LA CASA DEL PUEBLO INC,31675.0,14392.0,10001.0,A,1810 S BLUE ISLAND AVE,60608,LOWER WEST SIDE,31,25,17031310600,170313106002008.0,1167219.016357534,1891361.4813615358,41.8574527464,-87.66168833110001,"(41.8574527464, -87.6616883311)",0,la casa del pueblo inc
265,265,LA CIENEGA SUPER FOOD INC,65173.0,20310.0,10000.0,A,10736 S EWING AVE,60617,EAST SIDE,52,10,17031520300,170315203003000.0,1202148.2918444523,1834213.571786199,41.699814846500004,-87.53542689049999,"(41.6998148465, -87.5354268905)",0,la cienega super food inc
266,266,LA FERIA GROCERY,26609.0,11067.0,10001.0,A,9704 S COMMERCIAL AVE,60617,SOUTH DEERING,51,10,17031510100,170315101002033.0,1197784.6295619695,1841132.9778545648,41.7189121563,-87.55117429719999,"(41.7189121563, -87.5511742972)",0,la feria grocery
267,267,LA GUERRERENSE,67114.0,43885.0,3000.0,B,4149 W ARMITAGE AVE,60639,HERMOSA,20,30,17031831200,170318312003003.0,1148187.7143638656,1912920.3727141675,41.9170000028,-87.73098926450001,"(41.9170000028, -87.7309892645)",0,la guerrerense
268,268,LA INTERNATIONAL,57700.0,18542.0,3000.0,B,4301 S ARCHER AVE,60632,BRIGHTON PARK,58,14,17031580502,170315805021004.0,1156338.8461360813,1875918.037278842,41.815300693699996,-87.7020416008,"(41.8153006937, -87.7020416008)",0,la international
269,269,LA JALISCIENCE,4749.0,23661.0,3000.0,B,3239 W 26TH ST,60623,SOUTH LAWNDALE,30,22,17031840800,170318408001002.0,1155046.9425476384,1886508.4249456285,41.8443879922,-87.7064970959,"(41.8443879922, -87.7064970959)",0,la jaliscience
270,270,"LA LOMA ""CARNICERIA Y TAQUERIA""",49880.0,17241.0,4501.0,B,2535 N LARAMIE AVE,60639,BELMONT CRAGIN,19,31,17031190800,170311908004009.0,1141327.094421526,1916530.5217087832,41.9270360931,-87.75610618299999,"(41.9270360931, -87.7561061830)",0,"la loma ""carniceria y taqueria"""
271,271,LA MERCED INC,6834.0,3685.0,10001.0,A,4335 W 26TH ST,60623,SOUTH LAWNDALE,30,22,17031301801,170313018012007.0,1147980.980711077,1886328.481112944,41.8440327965,-87.73243286469999,"(41.8440327965, -87.7324328647)",0,la merced inc
272,272,"LA NUEVA IMAGEN GROCERY, INC.",1804216.0,315282.0,3000.0,B,2459 S MILLARD AVE,60623,SOUTH LAWNDALE,30,22,17031300600,170313006002001.0,1152475.4010279817,1887185.5068325486,41.8462971046,-87.71591642950001,"(41.8462971046, -87.7159164295)",0,"la nueva imagen grocery, inc."
273,273,LA PERLA TAPATIA BAKERY,1698.0,85292.0,3000.0,B,4214 W NORTH AVE,60639,HUMBOLDT PARK,23,30,17031230500,170312306004000.0,1147938.5380890095,1910338.4508784628,41.909919754,-87.73197125700001,"(41.9099197540, -87.7319712570)",0,la perla tapatia bakery
274,274,LA PLAMA,22662.0,63389.0,15000.0,A,4173 S ARCHER AVE,60632,BRIGHTON PARK,58,14,17031580501,170315805012012.0,1157347.0558745717,1876755.8258401973,41.8175793077,-87.69832058629999,"(41.8175793077, -87.6983205863)",0,la plama
275,275,LA PROVIDENCIA FOOD MART,16986.0,6991.0,2572.0,B,1658 W 21ST ST,60608,LOWER WEST SIDE,31,25,17031310800,170313108003010.0,1165383.8992395352,1890168.895161406,41.8542193742,-87.6684581591,"(41.8542193742, -87.6684581591)",0,la providencia food mart
276,276,"LA UNICA FOOD MART, INC.",491.0,90.0,5000.0,B,1515 W DEVON AVE,60660,EDGEWATER,77,40,17031030200,170310302004002.0,1164985.8850150076,1942560.4934320904,41.9979934597,-87.6684278857,"(41.9979934597, -87.6684278857)",0,"la unica food mart, inc."
277,277,LAKE VIEW FOODS INC,2055.0,408.0,3100.0,B,4106 N SHERIDAN RD,60613,UPTOWN,3,46,17031032100,170310321003005.0,1168818.5670162071,1927666.0915580725,41.9570402995,-87.6547628922,"(41.9570402995, -87.6547628922)",0,lake view foods inc
278,278,L'APPETITO,42672.0,16220.0,2900.0,B,875 N MICHIGAN AVE,60611,NEAR NORTH SIDE,8,42,17031081300,170310813003001.0,1177367.9363856323,1906565.1382551887,41.8989485417,-87.62397498770002,"(41.8989485417, -87.6239749877)",0,lappetito
279,279,LARAMIE BAKERY & DELI,2014141.0,350093.0,12331.0,A,3232 N HARLEM AVE,60634,DUNNING,17,36,17031170800,170311708001011.0,1127470.211370325,1920796.0675339887,41.9389859689,-87.8069290648,"(41.9389859689, -87.8069290648)",0,laramie bakery & deli
280,280,"LATIN GROCERY & LIQUOR, INC",20046.0,8064.0,10001.0,A,3800 W NORTH AVE,60647,HUMBOLDT PARK,23,30,17031230400,170312304002014.0,1150799.859774787,1910405.9395063643,41.9100494194,-87.72145808389999,"(41.9100494194, -87.7214580839)",0,"latin grocery & liquor, inc"
281,281,LAWNDALE FOOD MARKET,39529.0,15829.0,6000.0,B,3705 W 16TH ST,60623,NORTH LAWNDALE,29,24,17031292200,170312922003000.0,1151911.1391990148,1891750.0843996857,41.8588339683,-87.7178671863,"(41.8588339683, -87.7178671863)",0,lawndale food market
282,282,Laxi Liquor,47780.0,11112.0,3200.0,B,6922 W GRAND AVE,60707,MONTCLARE,18,36,17031831600,170318316002012.0,1129750.3958213264,1915232.7057123547,41.923680700300004,-87.79867612860001,"(41.9236807003, -87.7986761286)",0,laxi liquor
283,283,LEMEN SUN CORP.,28022.0,11427.0,3600.0,B,2832 S WENTWORTH AVE,60616,ARMOUR SQUARE,34,11,17031340400,170313404001020.0,1175376.922301567,1885651.26918079,41.8416044818,-87.6319155034,"(41.8416044818, -87.6319155034)",0,lemen sun corp.
284,284,LINDO MICHOACAN,42744.0,86194.0,8600.0,B,3142 W LAWRENCE AVE,60625,ALBANY PARK,14,33,17031140100,170311401002004.0,1154365.2769392605,1931758.8257039755,41.9685727721,-87.70778770129999,"(41.9685727721, -87.7077877013)",0,lindo michoacan
285,285,LOGAN CERTIFIED FOODS CORP,1046303.0,23391.0,4500.0,B,2857 W DIVERSEY AVE,60647,LOGAN SQUARE,22,35,17031220400,170312204001003.0,1156600.2971969466,1918436.531417816,41.93197047,-87.699931619,"(41.9319704700, -87.6999316190)",0,logan certified foods corp
286,286,LORETO GROCERY,76774.0,22681.0,4499.0,B,4600 S FAIRFIELD AVE,60632,BRIGHTON PARK,58,12,17031842800,170318428002005.0,1158768.5275376241,1874004.9008791847,41.8100014783,-87.6931813523,"(41.8100014783, -87.6931813523)",0,loreto grocery
287,287,LOS CUATRO HERMANOS GROCERY,7790.0,62837.0,10001.0,A,1858 S ALLPORT ST,60608,LOWER WEST SIDE,31,25,17031310600,170313106002002.0,1168296.854135198,1890914.2210547028,41.8562022212,-87.6577449724,"(41.8562022212, -87.6577449724)",0,los cuatro hermanos grocery
288,288,LOS POTRILLOS,1650212.0,299177.0,7000.0,B,3624 W BELMONT AVE,60618,AVONDALE,21,35,17031831100,170318311004023.0,1151517.7233741966,1921074.036951901,41.939309516,-87.7185399405,"(41.9393095160, -87.7185399405)",0,los potrillos
289,289,LOS SAUCES GROCERY,1223250.0,230035.0,2800.0,B,5852 W DIVERSEY AVE,60639,BELMONT CRAGIN,19,30,17031190402,170311904022037.0,1136654.0460147965,1918049.070447328,41.9312882001,-87.7732414533,"(41.9312882001, -87.7732414533)",0,los sauces grocery
290,290,LUCIANO'S GROCERY-18TH ST,1380524.0,265429.0,6000.0,B,1714 W 18TH ST,60608,LOWER WEST SIDE,31,25,17031310800,170313108001010.0,1165111.7227961887,1891492.2522095155,41.8578565675,-87.66941959559998,"(41.8578565675, -87.6694195956)",0,lucianos grocery-18th st
291,291,LUX 2 FOOD & LIQUOR,1869021.0,322813.0,2500.0,B,7550 S MAY ST,60620,AUBURN GRESHAM,71,17,17031710200,170317102004006.0,1169927.2894665268,1854470.9766403446,41.7561626996,-87.6528196032,"(41.7561626996, -87.6528196032)",0,lux 2 food & liquor
292,292,M & D VARIETY STORE,18355.0,7524.0,4500.0,B,1300 W 111TH ST,60643,MORGAN PARK,75,34,17031750100,170317501004020.0,1169607.666885054,1831203.2746074728,41.692319626599996,-87.65466321129999,"(41.6923196266, -87.6546632113)",0,m & d variety store
293,293,M & J LIQUOR & GROCERY,15168.0,6639.0,2900.0,B,3654 W LAWRENCE AVE,60625,ALBANY PARK,14,39,17031140301,170311403011010.0,1150913.7148362359,1931683.52010555,41.9684345799,-87.7204810114,"(41.9684345799, -87.7204810114)",0,m & j liquor & grocery
294,294,MACIAS PRODUCE INC.,1648017.0,297549.0,7000.0,B,8933 S COMMERCIAL AVE,60617,SOUTH CHICAGO,46,10,17031833900,170318339001015.0,1197739.2800366837,1846169.37984412,41.7327335949,-87.55117278360001,"(41.7327335949, -87.5511727836)",0,macias produce inc.
295,295,MAKOLA AFRICAN SUPERMARKET #2,2008279.0,279945.0,3500.0,B,4501 N SHERIDAN RD,60640,UPTOWN,3,46,17031031502,170310315022003.0,1168837.7591313405,1930075.0973980776,41.9636502775,-87.6546221904,"(41.9636502775, -87.6546221904)",0,makola african supermarket #2
296,296,MANDY'S LIQUOR,17168.0,7030.0,3000.0,B,1957 W LAWRENCE AVE,60640,LINCOLN SQUARE,4,47,17031830800,170318308001003.0,1162346.5151555608,1931848.8466024203,41.9686561373,-87.678438479,"(41.9686561373, -87.6784384790)",0,mandys liquor
297,297,MARIO 'S BUTCHER SHOP FD CNTR,4248.0,85432.0,10001.0,A,5817 W MADISON ST,60644,AUSTIN,25,29,17031252101,170312521011003.0,1137524.3342756743,1899380.951242931,41.8800449808,-87.7704933793,"(41.8800449808, -87.7704933793)",0,mario s butcher shop fd cntr
298,298,MARKET IN THE PARK,1334026.0,258947.0,5049.0,B,5050 S LAKE SHORE DR,60615,KENWOOD,39,4,17031390700,170313907003004.0,1189144.3247518237,1871655.5454706573,41.8028797781,-87.5818436939,"(41.8028797781, -87.5818436939)",0,market in the park
299,299,MA'S & PA'S GROCERY SNACK SHOP,7302.0,3806.0,4500.0,B,804 S CALIFORNIA AVE,60612,EAST GARFIELD PARK,27,2,17031271800,170312718001017.0,1157790.043250908,1896181.894843104,41.8708776439,-87.6961668842,"(41.8708776439, -87.6961668842)",0,mas & pas grocery snack shop
300,300,MAYFAIR MARKET PLACE,1948869.0,340165.0,12000.0,A,4728 N PULASKI RD,60630,ALBANY PARK,14,39,140500,170311405001000.0,1148831.9524721669,1931243.109849609,41.9672666701,-87.72814704780001,"(41.9672666701, -87.7281470478)",0,mayfair market place
301,301,MAYFLOWER FOOD,1168793.0,17975.0,6000.0,B,2104 S ARCHER AVE,60616,ARMOUR SQUARE,34,25,17031841100,170318411001021.0,1175264.5918291442,1890264.2275429482,41.8542653039,-87.6321895068,"(41.8542653039, -87.6321895068)",0,mayflower food
302,302,MEHRAB ZABIHA MEAT & TOBACCO,1094121.0,207539.0,3000.0,B,2445 W DEVON AVE,60659,WEST RIDGE,2,50,17031020802,170310208024001.0,1158669.7466333671,1942366.0081807286,41.9975920168,-87.69166812190002,"(41.9975920168, -87.6916681219)",0,mehrab zabiha meat & tobacco
303,303,MELISSA'S FOOD & LIQUORS INC,29494.0,11681.0,3500.0,B,3867 W GRAND AVE,60651,HUMBOLDT PARK,23,27,17031230700,170312307003012.0,1150134.108920061,1908582.763879062,41.9050594546,-87.72395138450001,"(41.9050594546, -87.7239513845)",0,melissas food & liquors inc
304,304,MI MEXICO GROCERY,1494240.0,277614.0,2600.0,B,2601 W 59TH ST,60629,CHICAGO LAWN,66,16,17031835000,170318350005001.0,1160033.9340359569,1865405.028793724,41.786376343200004,-87.688776514,"(41.7863763432, -87.6887765140)",0,mi mexico grocery
305,305,MIARA'S CONT'L PASTRY DELI INC,10400.0,4623.0,5000.0,B,7051 W ADDISON ST,60634,DUNNING,17,36,17031171000,170311710005004.0,1128545.078028991,1923079.509185056,41.9452338231,-87.8029266385,"(41.9452338231, -87.8029266385)",0,miaras contl pastry deli inc
306,306,MICELI'S DELI & FOOD MART,44924.0,16493.0,4000.0,B,2448 S OAKLEY AVE,60608,LOWER WEST SIDE,31,25,17031841300,170318413003008.0,1161387.699220223,1887514.882213944,41.847020464,-87.6831995522,"(41.8470204640, -87.6831995522)",0,micelis deli & food mart
307,307,MICHAELS FRESH MARKET,2043177.0,354856.0,41000.0,A,1300 E 47TH ST,60653,KENWOOD,39,4,17031390100,170313901001017.0,1185546.3076600826,1874136.3042231784,41.809772726599995,-87.5949608909,"(41.8097727266, -87.5949608909)",0,michaels fresh market
308,308,MID TOWN FOODS,39968.0,15264.0,3520.0,B,3855 W DIVISION ST,60651,HUMBOLDT PARK,23,27,17031231200,170312312004002.0,1150230.9340988179,1907681.304795596,41.9025838739,-87.7236192485,"(41.9025838739, -87.7236192485)",0,mid town foods
309,309,MINI MERCADO LA BETANIA,33473.0,3205.0,2640.0,B,2800 S TRIPP AVE,60623,SOUTH LAWNDALE,30,22,17031301803,170313018033002.0,1148469.2529375516,1885006.7985961474,41.8403965367,-87.7306750125,"(41.8403965367, -87.7306750125)",0,mini mercado la betania
310,310,MLB FOOD,1884977.0,326392.0,2500.0,B,613 E 67TH ST,60637,WOODLAWN,42,20,17031421200,170314212001005.0,1181543.403280431,1860685.48074214,41.7729559039,-87.6100578109,"(41.7729559039, -87.6100578109)",0,mlb food
311,311,MOO & OINK INC,11915.0,5928.0,21500.0,A,4848 W MADISON ST,60644,AUSTIN,25,28,17031251800,170312518004015.0,1143906.3902417778,1899620.061642381,41.8805838854,-87.7470529414,"(41.8805838854, -87.7470529414)",0,moo & oink inc
312,312,"MORELIA SUPERMARKET #2, INC.",1648410.0,298039.0,12000.0,A,4833 W DIVERSEY AVE,60639,BELMONT CRAGIN,19,31,17031190800,170311908001001.0,1143539.264268055,1918138.0990042568,41.931406291,-87.7479369735,"(41.9314062910, -87.7479369735)",0,"morelia supermarket #2, inc."
313,313,"MORELIA SUPERMARKET, INC.",1892862.0,243702.0,8000.0,B,7300 N WESTERN AVE,60645,WEST RIDGE,2,50,17031020200,170310202002007.0,1158974.9318886441,1948414.8605655308,42.0141839829,-87.6903783498,"(42.0141839829, -87.6903783498)",0,"morelia supermarket, inc."
314,314,MORGAN FOOD CORP LLC,1270949.0,250439.0,3500.0,B,6600 S MORGAN ST,60621,ENGLEWOOD,68,17,17031681000,170316810003009.0,1170741.1720107044,1861024.5986259226,41.7741289538,-87.6496459973,"(41.7741289538, -87.6496459973)",0,morgan food corp llc
315,315,MOROLEON FOODS #2 INC.,1801622.0,314329.0,3025.0,B,4257 S ROCKWELL ST,60632,BRIGHTON PARK,58,12,17031580700,170315807003005.0,1159787.496931104,1876115.055375464,41.8157711158,-87.6893858973,"(41.8157711158, -87.6893858973)",0,moroleon foods #2 inc.
316,316,MORSE FOOD AND MEAT MARKET,1518304.0,280735.0,17000.0,A,1430 W MORSE AVE,60626,ROGERS PARK,1,49,17031010600,170310106004012.0,1165298.3233714858,1946207.7407221363,42.0079949199,-87.6671741467,"(42.0079949199, -87.6671741467)",0,morse food and meat market
317,317,MOUNSEF INTERNATIONAL,21126.0,86704.0,10001.0,A,4738 N KEDZIE AVE,60625,ALBANY PARK,14,33,17031140701,170311407011000.0,1154145.7098985217,1931473.088110996,41.9677930872,-87.7086027049,"(41.9677930872, -87.7086027049)",0,mounsef international
318,318,MR G'S FOOD & LIQUOR,1429.0,263.0,3000.0,B,332 E 58TH ST,60637,WASHINGTON PARK,40,20,17031400400,170314004002002.0,1179370.5406004891,1866670.7186115358,41.7894298575,-87.6178403398,"(41.7894298575, -87.6178403398)",0,mr gs food & liquor
319,319,MUNCHIES ON LARRABEE,2073925.0,210118.0,2500.0,B,1012 N LARRABEE ST,60610,NEAR NORTH SIDE,8,27,17031842200,170318422001074.0,1172113.341730195,1907214.7041952682,41.9008485875,-87.64325553649998,"(41.9008485875, -87.6432555365)",0,munchies on larrabee
320,320,Municipal Foods,1478386.0,273724.0,9980.0,B,2559 W DIVISION ST,60622,WEST TOWN,24,26,17031242500,170312425001002.0,1158868.1815303229,1907844.6373137871,41.9028592342,-87.6918885843,"(41.9028592342, -87.6918885843)",0,municipal foods
321,321,NANCE FOOD MART,4756.0,3277.0,4500.0,B,10935 S WENTWORTH AVE,60628,ROSELAND,49,34,17031491000,170314910002007.0,1176930.5763119936,1832294.683255661,41.6951531575,-87.6278202407,"(41.6951531575, -87.6278202407)",0,nance food mart
322,322,NANCY FOODS INC,79959.0,23327.0,2500.0,B,12315 S STATE ST,60628,WEST PULLMAN,53,9,17031530600,170315306002026.0,1178520.7479500766,1823233.6333488047,41.6702523999,-87.62227195620001,"(41.6702523999, -87.6222719562)",0,nancy foods inc
323,323,NATIONAL FRUIT STOP,23627.0,9531.0,3000.0,B,3523 W LAWRENCE AVE,60625,ALBANY PARK,14,33,17031140701,170311407012002.0,1151894.1866127106,1931625.3434103087,41.9682556374,-87.7168773813,"(41.9682556374, -87.7168773813)",0,national fruit stop
324,324,Natural Country Deli,2017781.0,350688.0,3500.0,B,6452 N MILWAUKEE AVE,60631,NORWOOD PARK,10,41,17031100200,170311002001019.0,1132184.5426018387,1942510.9318083944,41.9984929696,-87.7890953687,"(41.9984929696, -87.7890953687)",0,natural country deli
325,325,NAYAB MART,1444872.0,269649.0,3125.0,B,2449 W DEVON AVE,60659,WEST RIDGE,2,50,17031020802,170310208024001.0,1158623.8724358284,1942364.6103797632,41.9975891244,-87.69183691479998,"(41.9975891244, -87.6918369148)",0,nayab mart
326,326,NEIL'S FOOD,1998505.0,221849.0,3500.0,B,7749 S HALSTED ST,60620,AUBURN GRESHAM,71,17,17031710100,170317101001007.0,1172356.9491783085,1853275.989279964,41.7528304183,-87.64395052479998,"(41.7528304183, -87.6439505248)",0,neils food
327,327,NEW LA ESTRELLA FOODS INC.,2003267.0,348383.0,5800.0,B,3003 W 63RD ST,60629,CHICAGO LAWN,66,15,17031660600,170316606005000.0,1157424.7681192728,1862672.6416905024,41.7789315569,-87.6984170935,"(41.7789315569, -87.6984170935)",0,new la estrella foods inc.
328,328,NEW POP-IN,1719179.0,306063.0,8784.0,B,413 S KEDZIE AVE,60612,EAST GARFIELD PARK,27,28,17031271200,170312712001033.0,1155148.6782666573,1897819.1171161383,41.8754237451,-87.7058203625,"(41.8754237451, -87.7058203625)",0,new pop-in
329,329,NICKEL LIQUOR & MINI MART INC,22084.0,9178.0,10001.0,A,3637 W DIVISION ST,60651,HUMBOLDT PARK,23,27,17031231200,170312312001002.0,1151779.2427703848,1907710.5383937538,41.9026337556,-87.7179312389,"(41.9026337556, -87.7179312389)",0,nickel liquor & mini mart inc
330,330,NOOR MEAT,61680.0,19506.0,3000.0,B,2505 W DEVON AVE,60659,WEST RIDGE,2,50,17031020802,170310208024002.0,1158430.460832184,1942357.5797250352,41.997573805900004,-87.69254859879999,"(41.9975738059, -87.6925485988)",0,noor meat
331,331,NORTHWEST FOOD & LIQUOR,1119636.0,209419.0,3180.0,B,5170 W NORTH AVE,60639,AUSTIN,25,37,17031250200,170312502001025.0,1141540.822233765,1910183.3773895188,41.9096148952,-87.7554779679,"(41.9096148952, -87.7554779679)",0,northwest food & liquor
332,332,"OGIES FOOD, INC",26972.0,11210.0,10001.0,A,2600 W LITHUANIAN PLAZA CT,60629,CHICAGO LAWN,66,15,17031660900,170316609003018.0,1160212.8691382485,1858843.1115837246,41.7683658358,-87.68830090770003,"(41.7683658358, -87.6883009077)",0,"ogies food, inc"
333,333,OHIO FOOD MART,1225367.0,243092.0,3500.0,B,5345 W OHIO ST,60644,AUSTIN,25,37,17031251500,170312515002004.0,1140427.8862632848,1903410.3057540525,41.8910492873,-87.75973283729998,"(41.8910492873, -87.7597328373)",0,ohio food mart
334,334,OLD WORLD MARKET,7507.0,3851.0,10001.0,A,5129 N BROADWAY,60640,UPTOWN,3,48,17031031200,170310312003004.0,1167423.681053109,1934373.3340121089,41.975475398600004,-87.6596970117,"(41.9754753986, -87.6596970117)",0,old world market
335,335,OLIVE MOUNT MART,1337266.0,205718.0,3000.0,B,3536 W 63RD ST,60629,CHICAGO LAWN,66,15,17031660400,170316604003014.0,1153755.8092024382,1862648.9617015244,41.7789401249,-87.71186857229998,"(41.7789401249, -87.7118685723)",0,olive mount mart
336,336,ONE STOP,2032029.0,352811.0,2500.0,B,4401 W MADISON ST,60624,WEST GARFIELD PARK,26,28,17031260500,170312605001000.0,1147026.5918903935,1899610.8155546756,41.8804994508,-87.735595961,"(41.8804994508, -87.7355959610)",0,one stop
337,337,ONE STOP FOOD & LIQUOR STORE,1094.0,205.0,58000.0,A,4301 S LAKE PARK AVE,60653,KENWOOD,39,4,17031390100,170313901001006.0,1184507.886319853,1876712.039424123,41.8168651481,-87.5986888442,"(41.8168651481, -87.5986888442)",0,one stop food & liquor store
338,338,ORIENTAL ASIA MARKET INC.,1903198.0,330517.0,7500.0,B,4932 N SHERIDAN RD,60640,UPTOWN,3,46,17031031200,170310312004004.0,1168693.6301710368,1933319.4190525482,41.9725559281,-87.6550576698,"(41.9725559281, -87.6550576698)",0,oriental asia market inc.
339,339,ORLEANS MARKET,23467.0,9485.0,3002.0,B,316 W ILLINOIS ST,60610,NEAR NORTH SIDE,8,42,17031081800,170310818002056.0,1174028.5037281606,1903591.6667498369,41.8908642852,-87.6363291879,"(41.8908642852, -87.6363291879)",0,orleans market
340,340,OSAMA FOOD MART,2031620.0,352625.0,2800.0,B,615 E 67TH ST,60637,WOODLAWN,42,20,17031421200,170314212001005.0,1181566.4243909956,1860686.264067193,41.7729575221,-87.6099733981,"(41.7729575221, -87.6099733981)",0,osama food mart
341,341,OUTLET KINGDOM,2054475.0,356046.0,4000.0,B,3449 S HALSTED ST,60608,BRIDGEPORT,60,11,17031839700,170318397002011.0,1171577.6413118422,1881783.3788749282,41.831074943699996,-87.64597111219999,"(41.8310749437, -87.6459711122)",0,outlet kingdom
342,342,P & I FOOD & LIQUOR INC.,16647.0,6907.0,3000.0,B,4154 W DIVISION ST,60651,HUMBOLDT PARK,23,37,17031230600,170312306002011.0,1148216.4487989843,1907711.8754945004,41.9027068139,-87.7310180698,"(41.9027068139, -87.7310180698)",0,p & i food & liquor inc.
343,343,PAR BIRDIE FOODS,28222.0,11464.0,6000.0,B,2234 W DEVON AVE,60659,WEST RIDGE,2,50,17031020500,170310205002010.0,1160106.8232114485,1942489.4136746884,41.9979009735,-87.68637821790001,"(41.9979009735, -87.6863782179)",0,par birdie foods
344,344,"PARK FOODS OF 71ST STREET,INC.",1677517.0,300221.0,3500.0,B,2612 W 71ST ST,60629,CHICAGO LAWN,66,18,17031660900,170316609003037.0,1160100.0534328348,1857512.6366215143,41.7647171389,-87.6887509815,"(41.7647171389, -87.6887509815)",0,"park foods of 71st street,inc."
345,345,"PARK PACKING OF CHICAGO, INC.",2008956.0,340517.0,3500.0,B,1544 W 41ST ST,60609,NEW CITY,61,11,17031842600,170318426002022.0,1166633.854413612,1877402.125897764,41.8191594443,-87.66423535540001,"(41.8191594443, -87.6642353554)",0,"park packing of chicago, inc."
346,346,PARKSHORE MARKET LTD,26464.0,10858.0,2860.0,B,195 N HARBOR DR,60601,LOOP,32,42,17031320100,170313201004007.0,1179687.0205464559,1901930.253664588,41.8861772806,-87.6155996011,"(41.8861772806, -87.6155996011)",0,parkshore market ltd
347,347,PATEL BROS,25338.0,88729.0,5000.0,B,2610 W DEVON AVE,60659,WEST RIDGE,2,50,17031020602,170310206023013.0,1157695.3668656345,1942415.3164009475,41.9977473006,-87.69525115809998,"(41.9977473006, -87.6952511581)",0,patel bros
348,348,PAULINA MARKET,1680919.0,301699.0,10000.0,A,3501 N LINCOLN AVE,60657,LAKE VIEW,6,32,17031831900,,1164057.2158518278,1923333.7106447169,41.945254158400004,-87.6723897932,"(41.9452541584, -87.6723897932)",0,paulina market
349,349,PAULINA SUPER MARKET INC,4851.0,3286.0,7000.0,B,7622 N PAULINA ST,60626,ROGERS PARK,1,49,17031010100,170310101002010.0,1163617.2385781805,1950601.539167988,42.020087315,-87.6732345632,"(42.0200873150, -87.6732345632)",0,paulina super market inc
350,350,PEORIA PACKING LTD,33970.0,14795.0,8000.0,B,1300 W LAKE ST,60607,NEAR WEST SIDE,28,27,17031833000,170318330002051.0,1167882.5854297176,1901616.9942708253,41.88558042,-87.6589569108,"(41.8855804200, -87.6589569108)",0,peoria packing ltd
351,351,PERSONAL LIQUORS INC,8913.0,4189.0,6000.0,B,4241 W MADISON ST,60624,WEST GARFIELD PARK,26,28,17031260600,170312606001000.0,1147946.9192404214,1899631.7285353527,41.8805391992,-87.73221603729998,"(41.8805391992, -87.7322160373)",0,personal liquors inc
352,352,PETERSON FOOD MART,1272746.0,251347.0,2500.0,B,2534 W PETERSON AVE,60659,WEST RIDGE,2,50,17031020802,170310208021019.0,1158181.489637414,1939808.8920842027,41.9905852147,-87.6935345218,"(41.9905852147, -87.6935345218)",0,peterson food mart
353,353,PETE'S FRESH MARKET,1598145.0,292834.0,50000.0,A,3448 E 118TH ST,60617,HEGEWISCH,55,10,17031550100,170315501005014.0,1201135.133266178,1827369.4192390712,41.6810595555,-87.5393675414,"(41.6810595555, -87.5393675414)",0,petes fresh market
354,354,PETE'S FRESH SUPERMARKET,1771242.0,312119.0,75000.0,A,2526 W CERMAK RD,60608,SOUTH LAWNDALE,30,28,17031840700,170318407003019.0,1159779.4669181071,1889354.0715093752,41.852100653200004,-87.68905111059998,"(41.8521006532, -87.6890511106)",0,petes fresh supermarket
355,355,PETE'S MARKET,36823.0,15303.0,10001.0,A,5724 S KEDZIE AVE,60629,GAGE PARK,63,14,17031630900,170316309001016.0,1155989.471001947,1866372.1648613026,41.789112548,-87.7035797266,"(41.7891125480, -87.7035797266)",0,petes market
356,356,PETE'S MEAT & GROCERY #2,1646096.0,296662.0,7500.0,B,2001 W 71ST ST,60636,WEST ENGLEWOOD,67,17,17031672000,170316720003002.0,1164235.476836242,1857536.3314805243,41.764696121,-87.67359278469999,"(41.7646961210, -87.6735927847)",0,petes meat & grocery #2
357,357,PETE'S PRODUCE,1476553.0,273114.0,5000.0,B,1543 E 87TH ST,60619,CALUMET HEIGHTS,48,8,17031480200,170314802001001.0,1188145.96280003,1847564.374045196,41.7367954576,-87.5862725091,"(41.7367954576, -87.5862725091)",0,petes produce
358,358,PETE'S PRODUCE,1448266.0,271341.0,10000.0,A,1411 W 87TH ST,60620,AUBURN GRESHAM,71,21,17031711400,170317114001001.0,1168376.3215049591,1847018.2308733282,41.7357448514,-87.6587177057,"(41.7357448514, -87.6587177057)",0,petes produce
359,359,POLONIA FOOD MART,6455.0,3630.0,10001.0,A,1956 W ARMITAGE AVE,60622,LOGAN SQUARE,22,32,17031832300,170318323001065.0,1162748.6020481898,1913344.4894302904,41.917870715599996,-87.67748061520003,"(41.9178707156, -87.6774806152)",0,polonia food mart
360,360,POTASH BROS INC,19826.0,8018.0,10001.0,A,875 N STATE ST,60610,NEAR NORTH SIDE,8,42,17031081201,170310812012003.0,1176242.0995097312,1906530.2212400872,41.898878197399995,-87.6281111483,"(41.8988781974, -87.6281111483)",0,potash bros inc
361,361,POTASH BROS. SUPERMARKET,164.0,21.0,12000.0,A,1525 N CLARK ST,60610,NEAR NORTH SIDE,8,42,17031080201,170310802012003.0,1175288.471159548,1910618.4481080882,41.910117944899994,-87.63149089139999,"(41.9101179449, -87.6314908914)",0,potash bros. supermarket
362,362,PRESTIGE LIQUORS,1883995.0,325934.0,2900.0,B,7104 S WESTERN AVE,60636,CHICAGO LAWN,66,18,17031661000,170316610004000.0,1161564.7766862034,1857442.9258322772,41.7644955967,-87.6833842675,"(41.7644955967, -87.6833842675)",0,prestige liquors
363,363,PUERTO RICO FOOD & LIQUORS,2033049.0,353309.0,2500.0,B,2559 W AUGUSTA BLVD,60622,WEST TOWN,24,26,17031242500,170312425002002.0,1158919.056747579,1906519.38109683,41.8992215766,-87.69173811620001,"(41.8992215766, -87.6917381162)",0,puerto rico food & liquors
364,364,QUALITY FOOD ON 71 ST INC,76481.0,22614.0,3000.0,B,2557 W 71ST ST,60629,CHICAGO LAWN,66,18,17031661000,170316610004004.0,1160309.1338794366,1857439.3315155609,41.7645116769,-87.687986655,"(41.7645116769, -87.6879866550)",0,quality food on 71 st inc
365,365,QUICK STOP FOOD MART,39791.0,3604.0,3000.0,B,2751 W PRATT BLVD,60645,WEST RIDGE,2,50,17031020601,170310206011001.0,1156542.5273663977,1944958.748255934,42.0047500731,-87.6994227766,"(42.0047500731, -87.6994227766)",0,quick stop food mart
366,366,QUINTESSENCE,2033012.0,350756.0,3000.0,B,1532 N PULASKI RD,60651,HUMBOLDT PARK,23,30,17031230600,170312306001006.0,1149393.3785912676,1910052.78863496,41.909107755,-87.72663414690003,"(41.9091077550, -87.7266341469)",0,quintessence
367,367,"R & S DISCOUNT FOOD, WINE, & LIQUOR",8647.0,4130.0,2800.0,B,2425 W DIVERSEY AVE,60647,LOGAN SQUARE,22,1,17031830900,170318309003001.0,1159580.4238182404,1918486.5731815097,41.932046850999996,-87.68897868629999,"(41.9320468510, -87.6889786863)",0,"r & s discount food, wine, & liquor"
368,368,RAINBOW FINER FOOD & LIQUOR,9138.0,4236.0,3500.0,B,6316 S ASHLAND AVE,60636,WEST ENGLEWOOD,67,16,17031671200,170316712001000.0,1166715.9827140924,1862739.747655707,41.778922405500005,-87.66435268110001,"(41.7789224055, -87.6643526811)",0,rainbow finer food & liquor
369,369,RAINBOW GROCERY,61801.0,19562.0,2500.0,B,2003 W 69TH ST,60636,WEST ENGLEWOOD,67,17,17031671500,170316715002005.0,1164163.508986039,1858859.4060370072,41.7683283348,-87.673819384,"(41.7683283348, -87.6738193840)",0,rainbow grocery
370,370,"RICH'S DELI & LIQUOR, INC",16735.0,6920.0,3400.0,B,857 N WESTERN AVE,60622,WEST TOWN,24,32,17031242400,170312424002016.0,1160284.9873089418,1905888.0401877046,41.8974609845,-87.68673855770002,"(41.8974609845, -87.6867385577)",0,"richs deli & liquor, inc"
371,371,RICHWELL MARKET,1070189.0,205927.0,7500.0,B,1835 S CANAL ST,60616,LOWER WEST SIDE,31,25,17031843200,170318432002008.0,1173469.3263424023,1891121.2873226057,41.8566571782,-87.6387533453,"(41.8566571782, -87.6387533453)",0,richwell market
372,372,RIGO'S GROCERY,1144306.0,215370.0,2500.0,B,2858 S LAWNDALE AVE,60623,SOUTH LAWNDALE,30,22,17031301702,170313017023004.0,1152136.5843694105,1884500.8487286288,41.8389367453,-87.7172305546,"(41.8389367453, -87.7172305546)",0,rigos grocery
373,373,"RIO GRANDE FRUIT MARKET, INC.",1042285.0,201574.0,3750.0,B,3501 W NORTH AVE,60647,HUMBOLDT PARK,23,26,17031230800,170312308001000.0,1152725.3573921344,1910369.2044691925,41.9099107051,-87.7143855102,"(41.9099107051, -87.7143855102)",0,"rio grande fruit market, inc."
374,374,RITE PRICE FOOD,1198136.0,222688.0,3600.0,B,5606 W DIVISION ST,60651,AUSTIN,25,29,17031250600,170312506002013.0,1138707.8484910156,1907480.831443773,41.9022506897,-87.76595092379999,"(41.9022506897, -87.7659509238)",0,rite price food
375,375,RIVERSIDE DELI,6403.0,3619.0,5500.0,B,1656 W CORTLAND ST,60622,LOGAN SQUARE,22,32,17031832300,170318323001048.0,1164752.5760843323,1912745.9937222216,41.916186115,-87.6701349439,"(41.9161861150, -87.6701349439)",0,riverside deli
376,376,RIVIERA FOODS,39650.0,89265.0,3500.0,B,3218 N HARLEM AVE,60634,DUNNING,17,36,17031170800,170311708001011.0,1127474.9754439709,1920652.2666651336,41.9385912816,-87.8069148007,"(41.9385912816, -87.8069148007)",0,riviera foods
377,377,RJ Liquors,1597198.0,292263.0,3550.0,B,5640 W FULLERTON AVE,60639,BELMONT CRAGIN,19,30,17031190602,170311906022035.0,1138190.0289126371,1915426.6851838846,41.9240644164,-87.76766048639999,"(41.9240644164, -87.7676604864)",0,rj liquors
378,378,RODRIGUEZ FRUITS & VEGETABLE,18231.0,7487.0,2626.0,B,2458 S ST LOUIS AVE,60623,SOUTH LAWNDALE,30,22,17031300700,170313007003004.0,1153392.1765289342,1887204.052675184,41.8463298609,-87.71255139969999,"(41.8463298609, -87.7125513997)",0,rodriguez fruits & vegetable
379,379,ROMAN BROS 1 INC,11900.0,5925.0,10001.0,A,6978 N CLARK ST,60626,ROGERS PARK,1,49,17031010702,170310107022004.0,1163418.9267608444,1946507.1666877328,42.008856472199994,-87.674080374,"(42.0088564722, -87.6740803740)",0,roman bros 1 inc
380,380,ROSE-RIDGE FOODS,1145417.0,216010.0,3000.0,B,10500 S MICHIGAN AVE,60628,ROSELAND,49,9,17031490902,170314909022043.0,1178820.3146104673,1835321.0397012718,41.7034152187,-87.62080967909998,"(41.7034152187, -87.6208096791)",0,rose-ridge foods
381,381,ROYLA BLUE FOODS,27007.0,63611.0,2500.0,B,4359 S CAMPBELL AVE,60632,BRIGHTON PARK,58,12,17031580700,170315807003013.0,1160464.1704940535,1875452.0040422697,41.8139376802,-87.68692201399998,"(41.8139376802, -87.6869220140)",0,royla blue foods
382,382,"S & K FOOD & LIQUOR, INC.",1544.0,291.0,10001.0,A,7500 S EXCHANGE AVE,60649,SOUTH SHORE,43,7,17031431302,170314313022001.0,1195140.8124018705,1855715.297708364,41.758992761799995,-87.5603778108,"(41.7589927618, -87.5603778108)",0,"s & k food & liquor, inc."
383,383,S & T PROVISION CO INC,12173.0,6018.0,10001.0,A,3804 W 111TH ST,60655,MOUNT GREENWOOD,74,19,17031740300,170317403001022.0,1152946.9129033936,1830759.519874977,41.691445910300004,-87.71567310389999,"(41.6914459103, -87.7156731039)",0,s & t provision co inc
384,384,S L PANTRY & GRILL,2013420.0,17935.0,2600.0,B,4759 N SHERIDAN RD,60640,UPTOWN,3,46,17031031501,170310315012001.0,1168808.0761449307,1932041.4567324752,41.969046674699996,-87.654674059,"(41.9690466747, -87.6546740590)",0,s l pantry & grill
385,385,S. S. FOOD & LIQUOR,1476109.0,272992.0,2703.0,B,2427 N CLARK ST,60614,LINCOLN PARK,7,43,17031070101,170310701012002.0,1172706.707831624,1916520.7436412969,41.9263716974,-87.6408000783,"(41.9263716974, -87.6408000783)",0,s. s. food & liquor
386,386,SAFAH FOOD & LIQUOR INC,14103.0,6462.0,3000.0,B,7105 S RACINE AVE,60636,ENGLEWOOD,68,17,17031681400,170316814002001.0,1169589.6794896778,1857650.9933907853,41.7648964002,-87.6539648335,"(41.7648964002, -87.6539648335)",0,safah food & liquor inc
387,387,SAHAR INTERNATIONAL SUPERMARKET,2079006.0,263556.0,7900.0,B,4851 N KEDZIE AVE,60625,ALBANY PARK,14,33,17031140100,170311401002004.0,1154202.458179647,1932262.2794308441,41.9699575396,-87.7083728782,"(41.9699575396, -87.7083728782)",0,sahar international supermarket
388,388,SAM FOOD AND LIQUOR,8745.0,4153.0,3000.0,B,6812 N SHERIDAN RD,60626,ROGERS PARK,1,49,17031010502,170310105022000.0,1166934.708698008,1945473.4134056158,42.005944816100005,-87.6611747511,"(42.0059448161, -87.6611747511)",0,sam food and liquor
389,389,SANABEL GROCERY & BAKERY,2009055.0,349374.0,6200.0,B,4213 N KEDZIE AVE,60618,IRVING PARK,16,33,17031160601,170311606011005.0,1154336.8155672685,1927899.605575853,41.9579834025,-87.7079959151,"(41.9579834025, -87.7079959151)",0,sanabel grocery & bakery
390,390,SAVE-A-LOT,1222884.0,216203.0,12000.0,A,5555 W NORTH AVE,60639,AUSTIN,25,37,17031250700,170312507004001.0,1138898.6455569188,1910041.705674552,41.9092745667,-87.765187785,"(41.9092745667, -87.7651877850)",0,save-a-lot
391,391,SAVE-A-LOT,1272454.0,216203.0,12000.0,A,2858 E 83RD ST,60617,SOUTH CHICAGO,46,7,17031460302,170314603024017.0,1196917.3210595995,1850533.97189374,41.7447308395,-87.5540391375,"(41.7447308395, -87.5540391375)",0,save-a-lot
392,392,SAVE-A-LOT,1167119.0,216203.0,114100.0,A,10700 S HALSTED ST,60628,MORGAN PARK,75,34,17031750100,170317501001000.0,1172839.7694387864,1833862.847287416,41.6995474147,-87.6427519151,"(41.6995474147, -87.6427519151)",0,save-a-lot
393,393,SAVE-A-LOT,1145759.0,216203.0,14166.0,A,7240 S STONY ISLAND AVE,60649,SOUTH SHORE,43,5,17031430400,170314304002007.0,1188030.8853089483,1857120.9566506508,41.7630223653,-87.5863901619,"(41.7630223653, -87.5863901619)",0,save-a-lot
394,394,SAVE-A-LOT,1272455.0,216203.0,12000.0,A,420 S PULASKI RD,60624,WEST GARFIELD PARK,26,24,17031260700,170312607002016.0,1149764.9433465141,1897457.3459149937,41.8745373122,-87.7255969017,"(41.8745373122, -87.7255969017)",0,save-a-lot
395,395,SAVE-A-LOT,1353496.0,216203.0,14800.0,A,4701 S COTTAGE GROVE AVE,60615,KENWOOD,39,4,17031390400,170313904002002.0,1182423.8619622332,1874006.37894934,41.8094892465,-87.60641742940003,"(41.8094892465, -87.6064174294)",0,save-a-lot
396,396,SAVE-A-LOT,1245433.0,216203.0,15000.0,A,7908 S HALSTED ST,60620,AUBURN GRESHAM,71,17,17031710800,170317108001009.0,1172300.9972507434,1852361.5784177724,41.7503223874,-87.6441824061,"(41.7503223874, -87.6441824061)",0,save-a-lot
397,397,SAVE-A-LOT,1196076.0,216203.0,12500.0,A,4439 W 63RD ST,60629,WEST LAWN,65,13,17031650301,170316503011004.0,1147705.0187589796,1862415.0080575915,41.7784159744,-87.7340575715,"(41.7784159744, -87.7340575715)",0,save-a-lot
398,398,Save-A-Lot #882,2079367.0,216203.0,16290.0,A,344 E 63RD ST,60637,WASHINGTON PARK,40,20,17031400800,170314008001008.0,1179590.4356351024,1863353.3344006431,41.7803216101,-87.61713538040001,"(41.7803216101, -87.6171353804)",0,save-a-lot #882
399,399,Save-A-Lot #886,2079232.0,216203.0,13000.0,A,148 W 79TH ST,60620,GREATER GRAND CROSSING,69,17,17031691200,170316912002015.0,1176452.4417566173,1852636.2224414563,41.7509837901,-87.6289614545,"(41.7509837901, -87.6289614545)",0,save-a-lot #886
400,400,SAVEWAY FOOD,1594450.0,290756.0,3000.0,B,313 E 43RD ST,60653,GRAND BOULEVARD,38,3,17031835800,170318358001004.0,1178918.696193015,1876526.8703099573,41.8164863247,-87.61919683139999,"(41.8164863247, -87.6191968314)",0,saveway food
401,401,SERRELLI'S FOODS,6981.0,62794.0,4000.0,B,6454 W NORTH AVE,60707,AUSTIN,25,36,17031250500,170312505002029.0,1132926.40115027,1909986.6324811887,41.909229895,-87.78712882069998,"(41.9092298950, -87.7871288207)",0,serrellis foods
402,402,SEVEN ELEVEN,34710.0,14901.0,3000.0,B,1425 W MONTROSE AVE,60613,LAKE VIEW,6,47,17031060100,170310601001000.0,1165738.538,1929275.8190000001,41.961523824699995,-87.66603985559998,"(41.9615238247, -87.6660398556)",0,seven eleven
403,403,"SEVEN NINE ELEVEN FOOD MART, INC.",2036.0,401.0,4300.0,B,4884 S ARCHER AVE,60632,ARCHER HEIGHTS,57,14,17031570400,170315704002008.0,1151496.512405212,1871991.2033628854,41.8046211506,-87.7199070655,"(41.8046211506, -87.7199070655)",0,"seven nine eleven food mart, inc."
404,404,SHOP & SAVE MARKET,1991275.0,338404.0,63426.0,A,5829 S ARCHER AVE,60638,GARFIELD RIDGE,56,23,17031560700,170315607002039.0,1140672.648412313,1868781.9760705472,41.7960196245,-87.7596833672,"(41.7960196245, -87.7596833672)",0,shop & save market
405,405,SHOP WISE FOOD,1334440.0,259101.0,6000.0,B,316 W 103RD ST,60628,ROSELAND,49,9,17031490700,170314907003028.0,1175916.5515061072,1836666.9231696047,41.7071739515,-87.6314024214,"(41.7071739515, -87.6314024214)",0,shop wise food
406,406,SOLID GOLD,1490386.0,203033.0,3300.0,B,3821 W ROOSEVELT RD,60624,NORTH LAWNDALE,29,24,17031838700,170318387001005.0,1151058.508087893,1894398.9495206943,41.866119494,-87.720927574,"(41.8661194940, -87.7209275740)",0,solid gold
407,407,SOUTH SHORE FOOD MARKET INC.,2008403.0,349092.0,3000.0,B,7501 S JEFFERY BLVD,60649,SOUTH SHORE,43,8,17031431200,170314312002008.0,1190880.9102572692,1855602.5288156609,41.7587872873,-87.5759934845,"(41.7587872873, -87.5759934845)",0,south shore food market inc.
408,408,STANLEY'S,15042.0,6609.0,10001.0,A,1558 N ELSTON AVE,60622,WEST TOWN,24,32,17031842300,170318423001025.0,1166918.6504769705,1910717.9026233568,41.9105746696,-87.66223522940003,"(41.9105746696, -87.6622352294)",0,stanleys
409,409,STEVE FOOD & LIQUOR,47965.0,11529.0,3500.0,B,6058 S RACINE AVE,60636,WEST ENGLEWOOD,67,16,17031670900,170316709001004.0,1169324.2958758222,1864367.9045050938,41.7833341838,-87.65474327940002,"(41.7833341838, -87.6547432794)",0,steve food & liquor
410,410,STOP & GO FOOD MART,26776.0,11123.0,3250.0,B,1622 W MONTEREY AVE,60643,MORGAN PARK,75,34,17031750600,170317506004009.0,1167414.1208496818,1830185.8430683515,41.6895747692,-87.6627231456,"(41.6895747692, -87.6627231456)",0,stop & go food mart
411,411,STRACK & VAN TIL,1798602.0,308026.0,65400.0,A,2627 N ELSTON AVE,60647,LOGAN SQUARE,22,1,17031830900,170318309001006.0,1161027.1481183649,1917565.4513252669,41.929489274,-87.68368782489998,"(41.9294892740, -87.6836878249)",0,strack & van til
412,412,SUN LIQUORS,19461.0,88712.0,4350.0,B,1101 W GRANVILLE AVE,60660,EDGEWATER,77,48,17031030102,170310301022001.0,1167723.7839086289,1941296.2999737784,41.9944657079,-87.6583928132,"(41.9944657079, -87.6583928132)",0,sun liquors
413,413,SUNRISE FOOD AND LIQUORS,21927.0,9067.0,7000.0,B,3737 W CHICAGO AVE,60651,HUMBOLDT PARK,23,27,17031231500,170312315006001.0,1151180.725291618,1905039.0761993781,41.895314759,-87.72019984149998,"(41.8953147590, -87.7201998415)",0,sunrise food and liquors
414,414,"SUPER DOLLAR AND UP 4, INC.",1597521.0,291475.0,4000.0,B,1604 W 59TH ST,60636,WEST ENGLEWOOD,67,15,670300,170316703001011.0,1166621.8027281605,1865628.9070289768,41.7868526305,-87.6646155793,"(41.7868526305, -87.6646155793)",0,"super dollar and up 4, inc."
415,415,SUPER DOLLAR DISCOUNT,2032403.0,353027.0,3500.0,B,4801 S ASHLAND AVE,60609,NEW CITY,61,20,17031611200,170316112002007.0,1166523.0076939159,1872858.6184143529,41.8066939242,-87.6647716526,"(41.8066939242, -87.6647716526)",0,super dollar discount
416,416,"SUPER FOOD & LIQUORS, INC.",40429.0,15748.0,4000.0,B,1049 W BRYN MAWR AVE,60660,EDGEWATER,77,48,17031030701,170310307011001.0,1168094.0029169165,1937326.2962504616,41.983563915,-87.657146291,"(41.9835639150, -87.6571462910)",0,"super food & liquors, inc."
417,417,SUPER FURNITURE & FOOD MART,2060727.0,357170.0,4000.0,B,5257 S ASHLAND AVE,60609,NEW CITY,61,16,17031611900,170316119001005.0,1166612.1687413086,1869626.4543659552,41.7978225881,-87.6645368783,"(41.7978225881, -87.6645368783)",0,super furniture & food mart
418,418,SUPER JIM'S,37540.0,33441.0,4500.0,B,5147 W DIVISION ST,60651,AUSTIN,25,37,17031251100,170312511004002.0,1141624.102055953,1907462.5959686881,41.9021472222,-87.7552393884,"(41.9021472222, -87.7552393884)",0,super jims
419,419,SUPER MAS MARKET,1997806.0,347422.0,32000.0,A,1422 W 47TH ST,60609,NEW CITY,61,3,17031842600,170318426002060.0,1167499.0144743386,1873621.1325798563,41.8087654583,-87.6611701084,"(41.8087654583, -87.6611701084)",0,super mas market
420,420,SUPER MERCADO EL GUERRO,7546.0,3857.0,9375.0,B,1701 W 47TH ST,60609,NEW CITY,61,20,17031611300,170316113003000.0,1165786.5456605123,1873500.5832346487,41.8084712383,-87.6674545133,"(41.8084712383, -87.6674545133)",0,super mercado el guerro
421,421,SUPER MERCADO LA CHIQUITA,6054.0,3546.0,9500.0,B,3555 W 26TH ST,60623,SOUTH LAWNDALE,30,22,17031301600,170313016001005.0,1152851.9808610491,1886452.8341763408,41.8442791237,-87.71455376629999,"(41.8442791237, -87.7145537663)",0,super mercado la chiquita
422,422,SUPERIOR NUT & CANDY  CO.I INC.,1122087.0,26728.0,10005.0,A,1111 W 40TH ST,60609,NEW CITY,61,11,17031842600,170318426002016.0,1169479.083339986,1878079.6963200863,41.820957494,-87.6537783218,"(41.8209574940, -87.6537783218)",0,superior nut & candy  co.i inc.
423,423,SUPERMARKET & TAQUERIA CARO,2014104.0,310507.0,4524.0,B,4937 W 47TH ST,60638,GARFIELD RIDGE,56,23,17031560300,170315603001003.0,1144086.2047966304,1872974.314261076,41.807460877800004,-87.747060571,"(41.8074608778, -87.7470605710)",0,supermarket & taqueria caro
424,424,SUPERMERCADO ALEX,1772307.0,4076.0,9375.0,B,4134 W 31ST ST,60623,SOUTH LAWNDALE,30,22,17031301803,170313018032019.0,1149168.2371555965,1883754.7411098608,41.8369472381,-87.72814236319998,"(41.8369472381, -87.7281423632)",0,supermercado alex
425,425,SUPERMERCADO CHAPALA,32236.0,86830.0,10001.0,A,7117 N CLARK ST,60626,ROGERS PARK,1,49,17031010702,170310107024002.0,1163327.6427636093,1947643.2360857404,42.0119757995,-87.67438405780001,"(42.0119757995, -87.6743840578)",0,supermercado chapala
426,426,SUPERMERCADO EL CUBANO INC,57265.0,6678.0,2750.0,B,4939 S ASHLAND AVE,60609,NEW CITY,61,20,17031611200,170316112002009.0,1166552.0704259109,1871797.8096108169,41.803782323,-87.6646953279,"(41.8037823230, -87.6646953279)",0,supermercado el cubano inc
427,427,SUPERMERCADO EL GUERO #10 INC,39978.0,10046.0,10001.0,A,4023 S ARCHER AVE,60632,BRIGHTON PARK,58,12,17031580600,170315806002005.0,1158673.0725754036,1877860.2682912191,41.8205830407,-87.69342616600002,"(41.8205830407, -87.6934261660)",0,supermercado el guero #10 inc
428,428,SUPERMERCADO EL GUERO NO. 8,20973.0,8662.0,14000.0,A,2101 W CERMAK RD,60608,LOWER WEST SIDE,31,25,17031841300,170318413001000.0,1162678.1623507629,1889348.6826840139,41.8520256918,-87.6784122433,"(41.8520256918, -87.6784122433)",0,supermercado el guero no. 8
429,429,SUPERMERCADO EL MEXICANO,1840895.0,295467.0,4387.0,B,6701 N CLARK ST,60626,ROGERS PARK,1,49,17031830600,170318306002009.0,1163903.5084818443,1944589.8191825529,42.0035849743,-87.67235193190002,"(42.0035849743, -87.6723519319)",0,supermercado el mexicano
430,430,SUPERMERCADO GELA'S,67273.0,20695.0,3125.0,B,2701 S LAWNDALE AVE,60623,SOUTH LAWNDALE,30,22,17031301701,170313017012003.0,1152182.029659277,1885772.1749317604,41.8424245295,-87.7170303155,"(41.8424245295, -87.7170303155)",0,supermercado gelas
431,431,SUPERMERCADO GUADALAJARA #2,3991.0,23651.0,6000.0,B,2300 S KEDZIE AVE,60623,SOUTH LAWNDALE,30,24,17031300800,170313008001012.0,1155346.7012859406,1888503.8028630181,41.8498575327,-87.70534347709999,"(41.8498575327, -87.7053434771)",0,supermercado guadalajara #2
432,432,SUPERMERCADO GUERRERO,2042000.0,354339.0,3800.0,B,3100 W CERMAK RD,60623,SOUTH LAWNDALE,30,24,17031841700,170318417001009.0,1156013.4881838674,1889256.0464354453,41.8519083675,-87.70287598899998,"(41.8519083675, -87.7028759890)",0,supermercado guerrero
433,433,SUPERMERCADO LA CHIQUTIA # 4,49303.0,89325.0,10001.0,A,2623 S PULASKI RD,60623,SOUTH LAWNDALE,30,22,17031301701,170313017013005.0,1150175.895202942,1886162.497239797,41.8435348913,-87.72438217940002,"(41.8435348913, -87.7243821794)",0,supermercado la chiqutia # 4
434,434,SUPERMERCADO LA VILLA,1800261.0,313811.0,9000.0,B,5020 W FULLERTON AVE,60639,BELMONT CRAGIN,19,31,17031190800,170311908003018.0,1142420.0085831813,1915530.8797561612,41.924272713600004,-87.75211503770002,"(41.9242727136, -87.7521150377)",0,supermercado la villa
435,435,Supermercado Santos,1091886.0,206261.0,4000.0,B,4045 W 31ST ST,60623,SOUTH LAWNDALE,30,22,17031830500,170318305001001.0,1149716.404899851,1883686.719119906,41.8367499608,-87.7261326568,"(41.8367499608, -87.7261326568)",0,supermercado santos
436,436,SUPERMERCADO TEPECOA GUERRERO,1493584.0,277252.0,3500.0,B,3629 W 63RD ST,60629,WEST LAWN,65,13,17031650302,170316503021002.0,1153106.4832857929,1862551.2042888359,41.7786847162,-87.7142516633,"(41.7786847162, -87.7142516633)",0,supermercado tepecoa guerrero
437,437,"SWEQI FOOD MART, INC.",2055024.0,356315.0,2600.0,B,4100 W NORTH AVE,60639,HUMBOLDT PARK,23,30,17031230500,170312306001001.0,1148781.2363983027,1910359.3625002718,41.9099608832,-87.7288749604,"(41.9099608832, -87.7288749604)",0,"sweqi food mart, inc."
438,438,"SZYMANSKI BROS, INC",18082.0,86677.0,3000.0,B,6016 W IRVING RD,60634,PORTAGE PARK,15,38,17031150502,170311505022015.0,1135438.8553791242,1926007.88654451,41.9531497374,-87.77751748770002,"(41.9531497374, -87.7775174877)",0,"szymanski bros, inc"
439,439,T & Z MEAT,1974575.0,343806.0,3000.0,B,3021 N CICERO AVE,60641,BELMONT CRAGIN,19,31,17031190100,170311901001017.0,1143886.9787092437,1919747.429192141,41.9358159257,-87.74661869719999,"(41.9358159257, -87.7466186972)",0,t & z meat
440,440,TAI NAM CORPORATION,34508.0,88874.0,10001.0,A,4925 N BROADWAY,60640,UPTOWN,3,48,17031031200,170310312002004.0,1167456.9338636994,1933184.8910509632,41.972213556999996,-87.6596091001,"(41.9722135570, -87.6596091001)",0,tai nam corporation
441,441,TAI WAH GROCERY,28038.0,63654.0,3200.0,B,2226 S WENTWORTH AVE,60616,ARMOUR SQUARE,34,25,17031841100,170318411004018.0,1175283.352865585,1889485.208198296,41.8521271977,-87.63214399569998,"(41.8521271977, -87.6321439957)",0,tai wah grocery
442,442,THE CELLAR,1574603.0,286737.0,5000.0,B,3106 N HARLEM AVE,60634,DUNNING,17,36,17031170900,170311709001018.0,1127497.707449469,1919931.53867148,41.936613132800005,-87.80684752110001,"(41.9366131328, -87.8068475211)",0,the cellar
443,443,THE FISH KEG INC,4908.0,3299.0,4000.0,B,2233 W HOWARD ST,60645,WEST RIDGE,2,49,17031020100,170310201002001.0,1160144.8366672578,1950322.6250022345,42.019394742399996,-87.6860204976,"(42.0193947424, -87.6860204976)",0,the fish keg inc
444,444,THE MARKET PLACE FOODSTORE,10794.0,24875.0,16900.0,A,521 W DIVERSEY PKWY,60614,LINCOLN PARK,7,43,17031070102,170310701022000.0,1172301.9044249672,1918839.6941741232,41.9327439571,-87.6422188452,"(41.9327439571, -87.6422188452)",0,the market place foodstore
445,445,THE NEIGHBORHOOD STORE,47617.0,16859.0,4200.0,B,8313 S RACINE AVE,60620,AUBURN GRESHAM,71,21,17031711000,170317110001007.0,1169811.740030297,1849596.0435747341,41.7427877337,-87.6533842508,"(41.7427877337, -87.6533842508)",0,the neighborhood store
446,446,THE PRODUCE CENTER,44723.0,16464.0,12000.0,A,5820 N MILWAUKEE AVE,60646,NORWOOD PARK,10,45,17031100100,170311001002047.0,1135086.8091526828,1938439.546845664,41.9872696368,-87.7785157048,"(41.9872696368, -87.7785157048)",0,the produce center
447,447,The Unit,2021618.0,351168.0,3500.0,B,2523 E 75TH ST,60649,SOUTH SHORE,43,7,17031431302,170314313022003.0,1194459.428615965,1855683.513739297,41.7589223174,-87.5628760391,"(41.7589223174, -87.5628760391)",0,the unit
448,448,THE WAREHOUSE,1843355.0,315225.0,6000.0,B,538 W 119TH ST,60628,WEST PULLMAN,53,34,17031530200,170315302003018.0,1174692.3796975152,1826020.5579884509,41.6779860017,-87.6362008551,"(41.6779860017, -87.6362008551)",0,the warehouse
449,449,THREE BROTHER,6321.0,62766.0,10001.0,A,900 N FRANCISCO AVE,60622,WEST TOWN,24,26,17031242700,170312427001004.0,1156842.0502440669,1906097.6996694184,41.8981068159,-87.6993783779,"(41.8981068159, -87.6993783779)",0,three brother
450,450,THREE R FOOD,1943396.0,339315.0,3000.0,B,2712 W MONTROSE AVE,60618,ALBANY PARK,14,33,17031140800,170311408002016.0,1157408.3941064144,1929156.723525272,41.961370945,-87.6966693474,"(41.9613709450, -87.6966693474)",0,three r food
451,451,"THREE ROOSTERS, INC.",1980803.0,345267.0,4830.0,B,12247 S HALSTED ST,60628,WEST PULLMAN,53,34,17031530501,170315305012020.0,1173256.2444677488,1823452.926244852,41.6709717654,-87.64153304959999,"(41.6709717654, -87.6415330496)",0,"three roosters, inc."
452,452,Three Stars Liquors,1488855.0,274865.0,4600.0,B,310 N KOSTNER AVE,60624,WEST GARFIELD PARK,26,28,17031260400,170312604001012.0,1146960.8395020878,1901550.3419970328,41.8858229904,-87.73578781139999,"(41.8858229904, -87.7357878114)",0,three stars liquors
453,453,THRIFTY FOOD,1045545.0,28478.0,4000.0,B,928 W WILSON AVE,60640,UPTOWN,3,46,17031031501,170310315013003.0,1169121.3240440846,1930772.46231734,41.9655577007,-87.65355927899998,"(41.9655577007, -87.6535592790)",0,thrifty food
454,454,TIERRA CALIENTE MARKET,1769425.0,311388.0,3125.0,B,1402 N ASHLAND AVE,60622,WEST TOWN,24,1,17031241500,170312415002014.0,1165430.1932639398,1909440.71828794,41.9071018181,-87.66773965530001,"(41.9071018181, -87.6677396553)",0,tierra caliente market
455,455,"TONY'S FINER FOODS ENTERPRISES, INC.",1717867.0,305203.0,21000.0,A,3607 W FULLERTON AVE,60647,LOGAN SQUARE,22,35,17031220902,170312209022000.0,1151897.10854296,1915676.2582798311,41.924490094,-87.717288131,"(41.9244900940, -87.7172881310)",0,"tonys finer foods enterprises, inc."
456,456,"TONY'S FINER FOODS ENTERPRISES, INC.",1717529.0,305203.0,31000.0,A,4137 N ELSTON AVE,60618,IRVING PARK,16,39,17031160400,170311604001027.0,1150401.2985076685,1927194.4143455827,41.9561262015,-87.7224828263,"(41.9561262015, -87.7224828263)",0,"tonys finer foods enterprises, inc."
457,457,"TONY'S FINER FOODS ENTERPRISES, INC.",1717532.0,305203.0,33000.0,A,4608 W BELMONT AVE,60641,PORTAGE PARK,15,30,17031151002,170311510024000.0,1144945.502930937,1920912.78478702,41.9389938243,-87.74269898950001,"(41.9389938243, -87.7426989895)",0,"tonys finer foods enterprises, inc."
458,458,"TONY'S FINER FOODS ENTERPRISES, INC.",1717568.0,305203.0,35000.0,A,2500 N CENTRAL AVE,60639,BELMONT CRAGIN,19,30,17031190602,170311906022019.0,1138581.7614314829,1916095.5957976915,41.9258928802,-87.7662048258,"(41.9258928802, -87.7662048258)",0,"tonys finer foods enterprises, inc."
462,462,TRATTORIA ISABELLA,1842843.0,320408.0,3365.0,B,217 N JEFFERSON ST,60661,NEAR WEST SIDE,28,42,17031280100,170312801001026.0,1172322.5414348007,1901912.231989673,41.8862936679,-87.6426439206,"(41.8862936679, -87.6426439206)",0,trattoria isabella
463,463,TREASURE ISLAND FOODS,1319.0,85291.0,10001.0,A,680 N LAKE SHORE DR,60611,NEAR NORTH SIDE,8,42,17031081401,170310814012011.0,1179588.0364358306,1905071.17066468,41.8947983703,-87.6158666457,"(41.8947983703, -87.6158666457)",0,treasure island foods
464,464,TREASURE ISLAND FOODS,1307.0,85291.0,10001.0,A,1639 N WELLS ST,60614,LINCOLN PARK,7,43,17031071500,170310715005003.0,1174435.9795041713,1911410.9826743081,41.9123117952,-87.63459885549999,"(41.9123117952, -87.6345988555)",0,treasure island foods
465,465,TREASURE ISLAND FOODS,1315.0,85291.0,10001.0,A,2121 N CLYBOURN AVE,60614,LINCOLN PARK,7,43,17031832500,170318325002021.0,1167009.0043373122,1914116.8640973247,41.919899684,-87.6618055364,"(41.9198996840, -87.6618055364)",0,treasure island foods
466,466,TREASURE ISLAND FOODS,1311.0,85291.0,10001.0,A,3460 N BROADWAY,60657,LAKE VIEW,6,44,17031062000,170310620002000.0,1171266.717875984,1923235.211072692,41.9448282656,-87.6458934884,"(41.9448282656, -87.6458934884)",0,treasure island foods
467,467,TREASURE ISLAND FOODS INC,1303.0,85291.0,10001.0,A,75 W ELM ST,60610,NEAR NORTH SIDE,8,42,17031081000,170310810001000.0,1175348.3044341346,1908034.5036140648,41.9030261368,-87.6313487722,"(41.9030261368, -87.6313487722)",0,treasure island foods inc
468,468,TWO BLUE FOODS INC,66710.0,20549.0,3000.0,B,702 E 100TH PL,60628,PULLMAN,50,8,17031500100,170315001004015.0,1183074.9839932893,1838632.1930885287,41.712403787,-87.6051275894,"(41.7124037870, -87.6051275894)",0,two blue foods inc
469,469,ULTRA FOODS,1741082.0,308026.0,87600.0,A,3250 W 87TH ST,60652,ASHBURN,70,18,17031700402,170317004023025.0,1156151.7756444376,1846754.0407316657,41.735274089499995,-87.7035112835,"(41.7352740895, -87.7035112835)",0,ultra foods
470,470,VIET HOA PLAZA,10540.0,85532.0,6174.0,B,1051 W ARGYLE ST,60640,UPTOWN,3,48,17031031200,170310312002000.0,1168165.7555058014,1933540.4916084788,41.9731740098,-87.6569923349,"(41.9731740098, -87.6569923349)",0,viet hoa plaza
471,471,W & R FOOD & LIQUOR INC,19348.0,7922.0,2700.0,B,1717 E 79TH ST,60649,SOUTH CHICAGO,46,8,17031460500,170314605007008.0,1189209.383081573,1852902.6150960047,41.7514187003,-87.5822058165,"(41.7514187003, -87.5822058165)",0,w & r food & liquor inc
472,472,W K R B FOOD & LIQUOR,25165.0,10242.0,4340.0,B,9361 S COTTAGE GROVE AVE,60619,CHATHAM,44,8,17031440800,170314408002017.0,1183247.9273338134,1842808.58250396,41.7238602893,-87.60436472079998,"(41.7238602893, -87.6043647208)",0,w k r b food & liquor
473,473,WALLY'S INTERNATIONAL MARKET,32288.0,14504.0,10001.0,A,3256 N MILWAUKEE AVE,60618,AVONDALE,21,31,17031831100,170318311003024.0,1149524.31975339,1921376.2510854304,41.9401778125,-87.72585843479997,"(41.9401778125, -87.7258584348)",0,wallys international market
474,474,WALLY'S MARKET INC,72825.0,21938.0,33000.0,A,6601 W IRVING PARK RD,60634,DUNNING,17,38,17031170300,170311703001003.0,1131673.8913741312,1925827.773722738,41.9527216579,-87.7913622126,"(41.9527216579, -87.7913622126)",0,wallys market inc
475,475,WASHINGTON GROCERY,6249.0,23967.0,4200.0,B,4139 W FIFTH AVE,60624,WEST GARFIELD PARK,26,24,17031261000,170312610002013.0,1148829.3509590852,1896476.4008109143,41.8718636117,-87.7290573726,"(41.8718636117, -87.7290573726)",0,washington grocery
476,476,"WAY LOW DISCOUNT FOOD, INC.",41036.0,16053.0,2500.0,B,1551 S KEDZIE AVE,60623,NORTH LAWNDALE,29,24,17031843100,170318431001029.0,1155321.4225621962,1892143.5663288003,41.8598459614,-87.705338554,"(41.8598459614, -87.7053385540)",0,"way low discount food, inc."
477,477,WEST HAVEN MARKET & GRILL,17558.0,7111.0,3200.0,B,2132 W WASHINGTON BLVD,60612,NEAR WEST SIDE,28,2,17031837800,170318378002019.0,1162032.1165760455,1900702.2627747909,41.8831944724,-87.6804664902,"(41.8831944724, -87.6804664902)",0,west haven market & grill
478,478,WEST LAWN FOODS,1591726.0,289367.0,17000.0,A,5838 S PULASKI RD,60629,WEST ELSDON,62,13,17031620300,170316203002019.0,1150664.380573105,1865421.2288227445,41.7866084095,-87.72313002889999,"(41.7866084095, -87.7231300289)",0,west lawn foods
485,485,WILLIAM'S PRODUCE,2079521.0,359604.0,6375.0,B,6309 W GRAND AVE,60639,BELMONT CRAGIN,19,29,17031191301,170311913013002.0,1133912.4701892291,1914608.0093288643,41.9218942299,-87.78339752,"(41.9218942299, -87.7833975200)",0,williams produce
486,486,WINDY CITY INC,24289.0,9833.0,4225.0,B,324 S CICERO AVE,60644,AUSTIN,25,24,17031252202,170312522025003.0,1144408.8929469842,1897932.7840747125,41.8759443554,-87.7452502275,"(41.8759443554, -87.7452502275)",0,windy city inc
487,487,WORLD FRESH MARKET,1492163.0,21515.0,5500.0,B,2434 W DEVON AVE,60659,WEST RIDGE,2,50,17031020602,170310206022013.0,1158782.2726905388,1942449.1789793384,41.997817925999996,-87.6912518856,"(41.9978179260, -87.6912518856)",0,world fresh market
488,488,Z & S FOOD & LIQUOR,7382.0,3827.0,6000.0,B,1351 W 87TH ST,60620,AUBURN GRESHAM,71,21,17031711400,170317114001000.0,1168619.0560111357,1847024.553591744,41.7357569772,-87.65782823469999,"(41.7357569772, -87.6578282347)",0,z & s food & liquor
489,489,ZEE DOLLAR AND FOOD,2014197.0,350114.0,3000.0,B,375 E 75TH ST,60619,GREATER GRAND CROSSING,69,6,17031691300,170316913001000.0,1180143.2815005996,1855330.4424091831,41.758293315,-87.6153541087,"(41.7582933150, -87.6153541087)",0,zee dollar and food
490,490,ZIAD CERTIFIED FOODS,9046.0,4213.0,2500.0,B,513 E 47TH ST,60653,GRAND BOULEVARD,38,3,17031381200,170313812002015.0,1180538.328907593,1873929.875312412,41.809322870100004,-87.61333552120001,"(41.8093228701, -87.6133355212)",0,ziad certified foods
491,491,WALGREENS,1144217.0,147.0,,A,2924 E 92ND ST,60617,SOUTH CHICAGO,46,7,17031461000,170315000000000.0,1197293.2179999999,1844562.9519999998,41.72833654,-87.55286024,"(41.72833654, -87.55286024)",0,walgreens
492,492,WALGREENS,18449.0,147.0,,A,3405 S DR MARTIN LUTHER KING JR DR,60616,DOUGLAS,35,4,17031351000,170314000000000.0,1179511.815,1882412.9019999998,41.8326245,-87.6168411,"(41.8326245, -87.6168411)",0,walgreens
493,493,WALGREENS,18419.0,147.0,,A,1554 E 55TH ST,60615,HYDE PARK,41,4,17031410800,170314000000000.0,1187538.136,1868878.342,41.79529732,-87.58782256,"(41.79529732, -87.58782256)",0,walgreens
494,494,WALGREENS,18619.0,7551.0,,A,5401 S WENTWORTH AVE,60609,FULLER PARK,37,3,17031835600,170318000000000.0,1175923.785,1869122.159,41.79623488,-87.63040492,"(41.79623488, -87.63040492)",0,walgreens
495,495,WALGREENS,18551.0,147.0,,A,6330 S DR MARTIN LUTHER KING JR DR,60637,GREATER GRAND CROSSING,69,20,17031842500,170318000000000.0,1179971.443,1862983.346,41.77929761,-87.61574988,"(41.77929761, -87.61574988)",0,walgreens
496,496,WALGREENS,1959845.0,7551.0,,A,1627 N PULASKI RD,60639,HUMBOLDT PARK,23,30,17031230400,170312000000000.0,1149504.572,1910639.095,41.91071448,-87.72621042,"(41.91071448, -87.72621042)",0,walgreens
497,497,WALGREENS,18468.0,147.0,,A,4005 W 26TH ST,60623,SOUTH LAWNDALE,30,22,17031301802,170313000000000.0,1150066.399,1886383.94,41.84414469,-87.72477825,"(41.84414469, -87.72477825)",0,walgreens
499,499,PETE'S FRESH SUPERMARKET,1771242.0,312119.0,,A,2526 W CERMAK RD,60608,SOUTH LAWNDALE,30,28,17031840700,170318000000000.0,1159779.467,1889354.072,41.85210065,-87.68905111,"(41.85210065, -87.68905111)",0,petes fresh supermarket
500,500,SAVE-A-LOT,1299911.0,216203.0,,A,3939 W OGDEN AVE,60623,NORTH LAWNDALE,29,22,17031843400,170318000000000.0,1150300.621,1888988.907,41.85128849,-87.72385084,"(41.85128849, -87.72385084)",0,save-a-lot
501,501,MARIANO'S FRESH MARKET #8507,2163771.0,360006.0,,A,5353 N ELSTON AVE,60630,JEFFERSON PARK,11,45,17031110100,170311000000000.0,1140915.424,1935358.8180000002,41.97871026,-87.75715377,"(41.97871026, -87.75715377)",0,marianos fresh market #8507
502,502,WALGREENS,1248924.0,147.0,,A,6016 W 63RD ST,60638,CLEARING,64,23,17031640300,170316000000000.0,1137276.865,1862177.824,41.77795816,-87.7722942,"(41.77795816, -87.7722942)",0,walgreens
503,503,WALGREENS,18768.0,7551.0,,A,6315 S KEDZIE AVE,60629,CHICAGO LAWN,66,15,17031660600,170317000000000.0,1156182.658,1862477.573,41.77842134,-87.70297606,"(41.77842134, -87.70297606)",0,walgreens
505,505,LOUIS' GROCERIES,2153429.0,372246.0,,A,7604 S COTTAGE GROVE AVE,60619,GREATER GRAND CROSSING,69,6,17031691400,170317000000000.0,1182841.9440000001,1854717.938,41.75655031,-87.60548285,"(41.75655031, -87.60548285)",0,louis groceries
